{"type":"FeatureCollection","features":[{"type":"Feature","properties":{"name":"Hailakandi"},"geometry":{"type":"Polygon","coordinates":[[[92.5965,24.8747],[92.5916,24.8727],[92.5698,24.8705],[92.5687,24.8298],[92.5534,24.8126],[92.545,24.7821],[92.5443,24.7627],[92.5251,24.7451],[92.5217,24.7249],[92.5092,24.7102],[92.4973,24.6848],[92.5035,24.663],[92.5048,24.6421],[92.5087,24.6246],[92.5041,24.606],[92.5129,24.5819],[92.5165,24.5631],[92.5098,24.5282],[92.5078,24.5011],[92.5078,24.4792],[92.5058,24.4484],[92.4987,24.4079],[92.4916,24.3827],[92.4803,24.35],[92.4514,24.2953],[92.4369,24.2768],[92.4214,24.2635],[92.4214,24.2635],[92.4209,24.256],[92.4193,24.2291],[92.4185,24.2121],[92.4293,24.197],[92.437,24.183],[92.4354,24.1657],[92.4482,24.1587],[92.464,24.15],[92.4755,24.1554],[92.4796,24.1642],[92.4838,24.1744],[92.5015,24.1755],[92.5108,24.1774],[92.5133,24.1872],[92.5287,24.1881],[92.5332,24.2011],[92.5389,24.2165],[92.5449,24.2319],[92.5465,24.2501],[92.5623,24.2601],[92.5871,24.2556],[92.6049,24.26],[92.6149,24.2815],[92.6163,24.2985],[92.6173,24.315],[92.622,24.3362],[92.6345,24.3442],[92.6428,24.3363],[92.6495,24.3393],[92.6563,24.3518],[92.6677,24.3548],[92.6829,24.3579],[92.6919,24.3709],[92.6977,24.3823],[92.7054,24.3937],[92.7116,24.4094],[92.7172,24.4227],[92.7283,24.4564],[92.7483,24.494],[92.7526,24.51],[92.7639,24.5246],[92.7599,24.5292],[92.7667,24.5415],[92.7744,24.5518],[92.7762,24.5621],[92.7795,24.5728],[92.7676,24.5729],[92.7603,24.5799],[92.7516,24.5869],[92.7397,24.5891],[92.733,24.5855],[92.7185,24.5702],[92.7084,24.5709],[92.6989,24.5756],[92.6792,24.5859],[92.6703,24.593],[92.6723,24.6032],[92.6697,24.6133],[92.6826,24.6151],[92.6951,24.6199],[92.6869,24.6281],[92.6745,24.6299],[92.667,24.6368],[92.6678,24.6614],[92.6639,24.6718],[92.6565,24.6787],[92.6553,24.6947],[92.6581,24.7135],[92.6559,24.7257],[92.6616,24.7551],[92.6656,24.7664],[92.6664,24.7804],[92.6714,24.7905],[92.683,24.8021],[92.6785,24.8122],[92.6521,24.8138],[92.6386,24.8175],[92.637,24.823],[92.6336,24.8491],[92.6056,24.8626],[92.5965,24.8747]]]}},{"type":"Feature","properties":{"name":"Hojai"},"geometry":{"type":"Polygon","coordinates":[[[92.7992,26.2264],[92.7854,26.2225],[92.768,26.2094],[92.7728,26.191],[92.7686,26.1746],[92.7503,26.1717],[92.728,26.1682],[92.7154,26.1583],[92.7094,26.1441],[92.7052,26.1292],[92.6835,26.1344],[92.6729,26.122],[92.6838,26.1076],[92.704,26.1081],[92.6989,26.0907],[92.7242,26.0817],[92.7208,26.0705],[92.7305,26.0664],[92.7358,26.0442],[92.7531,26.027],[92.7545,26.0161],[92.7522,25.9998],[92.7514,25.9884],[92.781,25.9724],[92.7724,25.9491],[92.7885,25.9325],[92.7957,25.9034],[92.8125,25.8949],[92.8445,25.8855],[92.8578,25.8349],[92.8841,25.8335],[92.8896,25.836],[92.9028,25.8379],[92.9189,25.8399],[92.9446,25.8432],[92.9647,25.8462],[92.9848,25.8469],[92.995,25.8313],[93.0053,25.8214],[93.0119,25.8094],[93.0213,25.797],[93.0431,25.7748],[93.0594,25.7617],[93.0757,25.7553],[93.0704,25.7491],[93.0704,25.7491],[93.0704,25.7491],[93.0743,25.741],[93.083,25.7426],[93.0949,25.7481],[93.1062,25.7487],[93.1179,25.7401],[93.1299,25.7331],[93.1331,25.7211],[93.148,25.7131],[93.1476,25.7022],[93.143,25.6892],[93.174,25.6992],[93.2079,25.7043],[93.2281,25.7124],[93.2323,25.7364],[93.2468,25.753],[93.2487,25.7747],[93.2455,25.7939],[93.2384,25.8167],[93.2226,25.8347],[93.2013,25.859],[93.1835,25.8815],[93.1725,25.9166],[93.1611,25.932],[93.1565,25.9537],[93.147,25.9733],[93.132,25.9894],[93.1122,26.0024],[93.0964,26.0077],[93.1055,26.042],[93.0914,26.0445],[93.08,26.0454],[93.0625,26.048],[93.0468,26.0532],[93.0348,26.0688],[93.0209,26.0761],[93.0016,26.081],[92.9811,26.0925],[92.9605,26.1007],[92.9381,26.1028],[92.9369,26.1156],[92.9533,26.1309],[92.9516,26.1524],[92.934,26.1644],[92.9092,26.1648],[92.8726,26.1686],[92.8409,26.1687],[92.814,26.1681],[92.7954,26.1745],[92.8107,26.1788],[92.8257,26.1907],[92.8169,26.2099],[92.8185,26.2204],[92.8041,26.2258],[92.7992,26.2264]]]}},{"type":"Feature","properties":{"name":"Morigaon"},"geometry":{"type":"Polygon","coordinates":[[[92.4162,26.47],[92.4082,26.4691],[92.395,26.4691],[92.365,26.459],[92.3437,26.463],[92.315,26.4629],[92.2981,26.4403],[92.287,26.4136],[92.2755,26.3998],[92.2602,26.385],[92.2401,26.3703],[92.2202,26.3656],[92.2016,26.3733],[92.1876,26.3911],[92.1755,26.3839],[92.1717,26.3659],[92.173,26.3438],[92.157,26.3346],[92.132,26.3184],[92.1111,26.308],[92.0954,26.3016],[92.0884,26.2811],[92.0752,26.2697],[92.0611,26.2627],[92.0389,26.2463],[92.0184,26.2434],[92.0039,26.2479],[91.9651,26.2313],[91.9508,26.2193],[91.9557,26.2082],[92.0164,26.1658],[92.0402,26.1597],[92.0528,26.1654],[92.0818,26.1464],[92.0941,26.1364],[92.1294,26.1355],[92.1478,26.1256],[92.1647,26.1253],[92.1626,26.1126],[92.17,26.075],[92.1774,26.0434],[92.1776,26.0435],[92.1782,26.0337],[92.1885,26.0308],[92.2082,26.0332],[92.2142,26.0336],[92.233,26.0297],[92.2521,26.0289],[92.2703,26.0312],[92.2807,26.0334],[92.2921,26.0406],[92.3008,26.0405],[92.3008,26.0404],[92.3092,26.0412],[92.3128,26.0509],[92.3321,26.0629],[92.3431,26.071],[92.3585,26.0779],[92.3708,26.095],[92.3912,26.1042],[92.4123,26.102],[92.4212,26.1101],[92.4165,26.1263],[92.4072,26.1474],[92.4156,26.1596],[92.4337,26.1644],[92.437,26.1736],[92.4336,26.194],[92.4464,26.2012],[92.4429,26.2128],[92.4422,26.2301],[92.453,26.2401],[92.4698,26.2436],[92.5082,26.2461],[92.5389,26.2539],[92.5466,26.2777],[92.556,26.3055],[92.5494,26.322],[92.547,26.3432],[92.5099,26.3319],[92.4799,26.3251],[92.4561,26.3365],[92.4437,26.3572],[92.4375,26.382],[92.4471,26.4059],[92.4495,26.4191],[92.4364,26.436],[92.4266,26.4526],[92.4162,26.47]]]}},{"type":"Feature","properties":{"name":"Darrang"},"geometry":{"type":"Polygon","coordinates":[[[92.3107,26.6253],[92.3091,26.6252],[92.2975,26.5958],[92.288,26.578],[92.2679,26.5655],[92.2684,26.5424],[92.2519,26.5309],[92.2422,26.5439],[92.2384,26.5607],[92.2316,26.5788],[92.2153,26.5972],[92.2003,26.6147],[92.1804,26.6135],[92.1618,26.5988],[92.1425,26.5947],[92.1192,26.6012],[92.1109,26.59],[92.0991,26.581],[92.0708,26.5707],[92.0564,26.5595],[92.0466,26.5425],[92.0324,26.5346],[92.0396,26.5203],[92.0586,26.5046],[92.0727,26.5076],[92.0727,26.5242],[92.0784,26.5408],[92.1059,26.547],[92.1262,26.5455],[92.1439,26.5429],[92.1428,26.5192],[92.1234,26.525],[92.1034,26.5259],[92.0936,26.5184],[92.0971,26.4985],[92.0914,26.4806],[92.0877,26.4648],[92.0882,26.4501],[92.093,26.4316],[92.0811,26.443],[92.0764,26.4287],[92.0694,26.4442],[92.0655,26.466],[92.062,26.4793],[92.0494,26.4827],[92.0334,26.4924],[92.0105,26.5135],[91.9919,26.515],[91.9732,26.504],[91.9566,26.5061],[91.9441,26.5218],[91.9232,26.5239],[91.9083,26.5127],[91.8966,26.4994],[91.8765,26.497],[91.8563,26.4917],[91.8432,26.4784],[91.8243,26.4728],[91.8048,26.4683],[91.7828,26.4734],[91.7828,26.4734],[91.78,26.4639],[91.7795,26.4484],[91.7774,26.4446],[91.7726,26.4211],[91.7678,26.4067],[91.7737,26.3821],[91.7896,26.3644],[91.8032,26.3449],[91.8185,26.3327],[91.8194,26.3049],[91.8128,26.2837],[91.7988,26.2736],[91.788,26.2666],[91.7874,26.2383],[91.7839,26.2118],[91.764,26.1932],[91.7494,26.1694],[91.7497,26.1691],[91.7709,26.1662],[91.7875,26.1722],[91.8077,26.1778],[91.8317,26.1821],[91.8528,26.1827],[91.8724,26.1825],[91.8885,26.1888],[91.9045,26.1983],[91.9161,26.2103],[91.929,26.2144],[91.9508,26.2193],[91.9651,26.2313],[92.0039,26.2479],[92.0184,26.2434],[92.0388,26.2463],[92.0611,26.2627],[92.0752,26.2697],[92.0884,26.2811],[92.0954,26.3016],[92.1111,26.308],[92.1319,26.3184],[92.157,26.3346],[92.173,26.3438],[92.1717,26.3659],[92.1755,26.3839],[92.1876,26.3911],[92.2016,26.3733],[92.2202,26.3656],[92.2401,26.3703],[92.2602,26.385],[92.2755,26.3998],[92.287,26.4136],[92.2981,26.4403],[92.315,26.4629],[92.3437,26.463],[92.365,26.459],[92.395,26.4691],[92.395,26.4691],[92.3994,26.4724],[92.3758,26.4744],[92.3712,26.4852],[92.369,26.5066],[92.3606,26.5216],[92.3613,26.533],[92.3385,26.5351],[92.3306,26.5482],[92.3298,26.5552],[92.3282,26.5622],[92.3311,26.5827],[92.3365,26.5895],[92.3355,26.5942],[92.332,26.6061],[92.3333,26.6177],[92.3332,26.6177],[92.3107,26.6253]]]}},{"type":"Feature","properties":{"name":"Udalguri"},"geometry":{"type":"Polygon","coordinates":[[[92.3535,26.8773],[92.3511,26.8771],[92.3465,26.8756],[92.3018,26.8663],[92.3028,26.8539],[92.296,26.8497],[92.2784,26.8464],[92.267,26.848],[92.2535,26.8546],[92.2252,26.8453],[92.1942,26.8339],[92.1688,26.8349],[92.1559,26.8351],[92.1282,26.8338],[92.1121,26.8354],[92.1121,26.8354],[92.1022,26.824],[92.1014,26.8107],[92.056,26.7918],[92.0122,26.7953],[91.982,26.803],[91.9661,26.821],[91.9497,26.8343],[91.8917,26.8617],[91.8584,26.8562],[91.8236,26.808],[91.7794,26.7865],[91.7202,26.7568],[91.7015,26.7568],[91.7112,26.7299],[91.7292,26.6815],[91.7388,26.6497],[91.7405,26.6245],[91.7326,26.6126],[91.7429,26.5942],[91.7456,26.5875],[91.7362,26.5773],[91.7389,26.5645],[91.7388,26.5537],[91.7435,26.5439],[91.7574,26.528],[91.7781,26.5008],[91.7804,26.4866],[91.7834,26.4802],[91.7828,26.4734],[91.7828,26.4734],[91.7828,26.4734],[91.8048,26.4683],[91.8243,26.4728],[91.8432,26.4784],[91.8563,26.4917],[91.8765,26.497],[91.8966,26.4994],[91.9083,26.5127],[91.9232,26.5239],[91.9441,26.5218],[91.9566,26.5061],[91.9732,26.504],[91.9919,26.515],[92.0105,26.5135],[92.0334,26.4924],[92.0494,26.4827],[92.062,26.4793],[92.0655,26.466],[92.0694,26.4442],[92.0764,26.4287],[92.0811,26.443],[92.093,26.4316],[92.0882,26.4501],[92.0877,26.4648],[92.0914,26.4806],[92.0971,26.4985],[92.0936,26.5184],[92.1034,26.5259],[92.1234,26.525],[92.1428,26.5192],[92.1439,26.5429],[92.1262,26.5455],[92.1059,26.547],[92.0784,26.5408],[92.0727,26.5242],[92.0727,26.5076],[92.0586,26.5046],[92.0396,26.5203],[92.0324,26.5346],[92.0466,26.5425],[92.0564,26.5595],[92.0708,26.5707],[92.0991,26.581],[92.1109,26.59],[92.1192,26.6012],[92.1425,26.5947],[92.1618,26.5988],[92.1804,26.6135],[92.2003,26.6147],[92.2153,26.5972],[92.2316,26.5788],[92.2384,26.5607],[92.2422,26.5439],[92.2519,26.5309],[92.2684,26.5424],[92.2679,26.5655],[92.288,26.578],[92.2975,26.5958],[92.3091,26.6252],[92.3332,26.6177],[92.3332,26.6177],[92.3337,26.633],[92.3352,26.6545],[92.3332,26.6828],[92.3285,26.6989],[92.3313,26.7146],[92.3389,26.7206],[92.3345,26.7368],[92.3291,26.7526],[92.3304,26.7634],[92.3349,26.7727],[92.3396,26.7969],[92.3435,26.819],[92.3478,26.8451],[92.3635,26.8747],[92.3635,26.875],[92.3559,26.8767],[92.3535,26.8773]]]}},{"type":"Feature","properties":{"name":"Biswanath"},"geometry":{"type":"Polygon","coordinates":[[[93.6961,26.9353],[93.696,26.9352],[93.6746,26.9129],[93.6383,26.9058],[93.5941,26.8967],[93.5655,26.8954],[93.4875,26.8805],[93.4662,26.881],[93.4459,26.8957],[93.3461,26.9043],[93.2132,26.8886],[93.1205,26.8713],[93.0916,26.8589],[93.0675,26.8663],[93.0284,26.8598],[93.0006,26.8695],[92.9791,26.8774],[92.9607,26.8689],[92.9467,26.8633],[92.9275,26.8546],[92.9178,26.8437],[92.9044,26.8361],[92.8881,26.829],[92.8755,26.8138],[92.8683,26.7996],[92.8646,26.7874],[92.8774,26.749],[92.8779,26.7306],[92.876,26.7139],[92.869,26.7036],[92.8603,26.6944],[92.8562,26.6727],[92.86,26.655],[92.8649,26.6335],[92.8658,26.6172],[92.8651,26.6052],[92.8711,26.5837],[92.8771,26.5638],[92.8875,26.5462],[92.8963,26.548],[92.9185,26.5499],[92.94,26.5691],[92.9873,26.5657],[93.0056,26.5511],[93.0529,26.5479],[93.0811,26.5479],[93.0984,26.5404],[93.12,26.5386],[93.152,26.5396],[93.1629,26.5558],[93.1809,26.5657],[93.2147,26.578],[93.2291,26.6041],[93.2403,26.6309],[93.2553,26.6348],[93.2826,26.6368],[93.2903,26.6467],[93.3057,26.6488],[93.3201,26.6555],[93.3348,26.659],[93.3421,26.6758],[93.3677,26.6913],[93.3972,26.7008],[93.4189,26.6961],[93.4416,26.6956],[93.4693,26.7083],[93.5011,26.7084],[93.5239,26.7043],[93.5383,26.6979],[93.5597,26.6863],[93.5632,26.6747],[93.6048,26.6654],[93.6387,26.657],[93.6549,26.6599],[93.6701,26.6636],[93.665,26.6778],[93.6524,26.712],[93.6479,26.7379],[93.6679,26.7483],[93.6862,26.7443],[93.7011,26.7556],[93.7119,26.7655],[93.7432,26.7493],[93.7537,26.7549],[93.7676,26.7555],[93.7794,26.7582],[93.788,26.7617],[93.792,26.7698],[93.7635,26.7846],[93.77,26.7912],[93.7708,26.7967],[93.7777,26.7986],[93.7867,26.8047],[93.7867,26.8047],[93.7863,26.8056],[93.7858,26.8065],[93.7793,26.8253],[93.7601,26.8373],[93.7414,26.8522],[93.7462,26.8723],[93.7422,26.8986],[93.7232,26.9186],[93.6962,26.9352],[93.6961,26.9353]]]}},{"type":"Feature","properties":{"name":"Dhemaji"},"geometry":{"type":"Polygon","coordinates":[[[95.5122,27.7997],[95.5121,27.7996],[95.3806,27.7606],[95.3315,27.7812],[95.306,27.7864],[95.2408,27.7694],[95.073,27.7178],[95.0451,27.7066],[95.0091,27.6944],[94.9852,27.6923],[94.9024,27.6702],[94.8577,27.6607],[94.8606,27.659],[94.8504,27.6531],[94.8455,27.6326],[94.8241,27.6209],[94.8043,27.6194],[94.7917,27.618],[94.7735,27.6065],[94.7605,27.5971],[94.7451,27.588],[94.7264,27.5908],[94.7156,27.5888],[94.7033,27.5866],[94.6825,27.5876],[94.6822,27.5756],[94.6668,27.5741],[94.6456,27.5659],[94.628,27.5527],[94.6111,27.55],[94.5968,27.5461],[94.5824,27.5439],[94.5664,27.531],[94.5507,27.5285],[94.5324,27.5218],[94.5185,27.5157],[94.5047,27.5081],[94.4867,27.5013],[94.473,27.4985],[94.4569,27.4838],[94.4524,27.4912],[94.4282,27.5204],[94.4093,27.5197],[94.383,27.5129],[94.3594,27.5053],[94.3361,27.5071],[94.3125,27.5147],[94.289,27.5238],[94.2724,27.5221],[94.2567,27.5458],[94.2548,27.5608],[94.2346,27.5652],[94.2153,27.5452],[94.2151,27.5241],[94.2194,27.5153],[94.2275,27.4982],[94.2524,27.4867],[94.2562,27.4616],[94.2571,27.4504],[94.2606,27.4486],[94.2773,27.432],[94.2759,27.4049],[94.283,27.3856],[94.3043,27.365],[94.3034,27.3434],[94.2963,27.3214],[94.2783,27.3184],[94.2621,27.3315],[94.2444,27.3235],[94.2475,27.3165],[94.2626,27.3021],[94.2776,27.2923],[94.2938,27.2865],[94.2981,27.2815],[94.3204,27.2841],[94.3374,27.2785],[94.3536,27.2746],[94.4003,27.2659],[94.429,27.2658],[94.4448,27.2738],[94.4719,27.2794],[94.496,27.2816],[94.5151,27.2695],[94.5242,27.2438],[94.5336,27.2393],[94.5569,27.2563],[94.5753,27.2383],[94.5953,27.2191],[94.604,27.2321],[94.609,27.2557],[94.6191,27.2671],[94.6372,27.263],[94.6544,27.2815],[94.661,27.3047],[94.6819,27.3171],[94.6849,27.3444],[94.7186,27.3603],[94.7361,27.3713],[94.7497,27.3862],[94.7646,27.4093],[94.7893,27.4139],[94.8089,27.4315],[94.8138,27.4461],[94.8423,27.4673],[94.8708,27.4916],[94.8944,27.514],[94.9262,27.5337],[94.9489,27.5467],[94.9798,27.5771],[95.0248,27.5861],[95.0465,27.5906],[95.0927,27.5888],[95.1178,27.6074],[95.1565,27.6194],[95.1911,27.6308],[95.2003,27.6217],[95.1906,27.5989],[95.2102,27.584],[95.2369,27.5825],[95.2726,27.61],[95.2789,27.6176],[95.3091,27.6227],[95.3255,27.6252],[95.3651,27.6402],[95.3971,27.652],[95.4157,27.6642],[95.4501,27.6946],[95.4573,27.7074],[95.4632,27.7288],[95.473,27.7429],[95.4742,27.7535],[95.4824,27.7672],[95.4939,27.7788],[95.5157,27.7819],[95.5122,27.7996],[95.5122,27.7997]]]}},{"type":"Feature","properties":{"name":"Tamulpur"},"geometry":{"type":"Polygon","coordinates":[[[91.4083,26.7837],[91.4205,26.7586],[91.4367,26.7378],[91.4689,26.7031],[91.4697,26.6734],[91.4781,26.6443],[91.4966,26.6231],[91.505,26.5963],[91.5014,26.5687],[91.4992,26.5457],[91.5067,26.5282],[91.528,26.5206],[91.528,26.5206],[91.5243,26.5254],[91.5275,26.5291],[91.5402,26.529],[91.5453,26.5312],[91.5523,26.5336],[91.5673,26.5313],[91.5829,26.5291],[91.5911,26.5189],[91.5952,26.5067],[91.598,26.4924],[91.6148,26.4802],[91.6331,26.4668],[91.6425,26.4536],[91.6498,26.4373],[91.6627,26.4239],[91.6979,26.4153],[91.7204,26.4233],[91.7319,26.4415],[91.7474,26.4522],[91.7795,26.4484],[91.7795,26.4484],[91.7801,26.4639],[91.7828,26.4734],[91.7834,26.4802],[91.7805,26.4866],[91.7781,26.5008],[91.7575,26.528],[91.7435,26.5439],[91.7388,26.5537],[91.739,26.5645],[91.7362,26.5773],[91.7457,26.5875],[91.7429,26.5942],[91.7326,26.6126],[91.7405,26.6245],[91.7388,26.6497],[91.7292,26.6815],[91.7112,26.7299],[91.7015,26.7568],[91.6889,26.7524],[91.6256,26.7659],[91.5995,26.754],[91.5852,26.7495],[91.5251,26.7414],[91.4946,26.737],[91.4613,26.7493],[91.4334,26.7658],[91.4083,26.7837]]]}},{"type":"Feature","properties":{"name":"Bongaigaon"},"geometry":{"type":"Polygon","coordinates":[[[90.6499,26.4795],[90.6331,26.4754],[90.6236,26.4618],[90.6244,26.4388],[90.5979,26.4562],[90.5638,26.4627],[90.564,26.4296],[90.552,26.4014],[90.5386,26.3792],[90.526,26.3971],[90.497,26.4088],[90.4718,26.3982],[90.4612,26.378],[90.4602,26.3592],[90.4444,26.3668],[90.4388,26.3585],[90.4418,26.3437],[90.4447,26.3267],[90.4495,26.312],[90.4568,26.3115],[90.4566,26.3],[90.4545,26.296],[90.4709,26.2901],[90.4713,26.2762],[90.4768,26.2472],[90.4679,26.2392],[90.4564,26.2418],[90.4732,26.2306],[90.4481,26.2305],[90.4499,26.2089],[90.4302,26.2158],[90.4305,26.2039],[90.3948,26.1812],[90.3773,26.1662],[90.365,26.139],[90.3472,26.1369],[90.3603,26.122],[90.3993,26.11],[90.426,26.106],[90.4548,26.108],[90.4794,26.122],[90.5184,26.136],[90.541,26.148],[90.5718,26.15],[90.6006,26.1601],[90.6211,26.1841],[90.6458,26.1861],[90.6587,26.188],[90.6523,26.197],[90.6599,26.2082],[90.6712,26.214],[90.7015,26.2155],[90.716,26.223],[90.7281,26.2168],[90.7324,26.225],[90.7217,26.2273],[90.7183,26.2366],[90.7271,26.2503],[90.7459,26.2608],[90.756,26.2697],[90.7664,26.2656],[90.783,26.2615],[90.795,26.264],[90.8035,26.2703],[90.799,26.2796],[90.7894,26.2852],[90.8042,26.3006],[90.8075,26.312],[90.8191,26.3227],[90.8311,26.3183],[90.8427,26.3157],[90.8572,26.3185],[90.8602,26.3302],[90.8467,26.3468],[90.844,26.3577],[90.8489,26.3679],[90.8577,26.385],[90.8522,26.3951],[90.8416,26.3991],[90.8287,26.3875],[90.8171,26.3874],[90.7936,26.3838],[90.7862,26.3944],[90.7957,26.3995],[90.8102,26.394],[90.8249,26.404],[90.8187,26.4153],[90.8167,26.4304],[90.8037,26.4327],[90.8037,26.4326],[90.7748,26.4369],[90.7532,26.4282],[90.7313,26.4376],[90.7027,26.4395],[90.6849,26.4636],[90.6559,26.4786],[90.6499,26.4795]]]}},{"type":"Feature","properties":{"name":"Bajali"},"geometry":{"type":"Polygon","coordinates":[[[91.1418,26.6121],[91.1386,26.6114],[91.1352,26.6016],[91.1261,26.5975],[91.1331,26.5895],[91.1395,26.5798],[91.147,26.5722],[91.1365,26.5679],[91.1375,26.5567],[91.1379,26.5419],[91.148,26.5266],[91.1424,26.5074],[91.1362,26.4969],[91.1193,26.4951],[91.1047,26.4726],[91.0902,26.4749],[91.0859,26.4928],[91.057,26.4968],[91.0334,26.4872],[91.0361,26.4765],[91.038,26.4654],[91.0278,26.4539],[91.0334,26.4497],[91.0405,26.4428],[91.0415,26.4312],[91.0411,26.4136],[91.0464,26.3986],[91.0419,26.3807],[91.041,26.3786],[91.0533,26.3613],[91.0733,26.3565],[91.1002,26.3563],[91.1155,26.3649],[91.1207,26.3828],[91.1255,26.3992],[91.147,26.3962],[91.1681,26.3952],[91.1845,26.3953],[91.1954,26.3809],[91.202,26.3667],[91.2096,26.3601],[91.2301,26.3577],[91.2385,26.3593],[91.2324,26.3795],[91.2373,26.4037],[91.2515,26.4226],[91.2659,26.4451],[91.2471,26.4632],[91.2455,26.481],[91.2449,26.4888],[91.2432,26.5025],[91.2432,26.5025],[91.2384,26.5135],[91.2482,26.5201],[91.2612,26.5271],[91.2786,26.5424],[91.2906,26.5486],[91.2903,26.5571],[91.2693,26.5583],[91.2503,26.5577],[91.2314,26.5605],[91.22,26.5596],[91.2112,26.5527],[91.2138,26.5444],[91.2002,26.5478],[91.1998,26.5594],[91.189,26.5601],[91.1738,26.5716],[91.1663,26.5828],[91.1573,26.5937],[91.1504,26.6079],[91.1418,26.6121]]]}},{"type":"Feature","properties":{"name":"Nalbari"},"geometry":{"type":"Polygon","coordinates":[[[91.5561,26.5337],[91.5523,26.5336],[91.5453,26.5312],[91.5402,26.529],[91.5275,26.5291],[91.5243,26.5254],[91.528,26.5206],[91.5269,26.5128],[91.5256,26.5021],[91.5218,26.4946],[91.5128,26.4897],[91.4972,26.4919],[91.4898,26.5025],[91.4852,26.5121],[91.4576,26.5114],[91.4485,26.5065],[91.4534,26.4989],[91.4451,26.4927],[91.4241,26.4876],[91.3953,26.4829],[91.374,26.4801],[91.3543,26.4729],[91.346,26.4634],[91.3407,26.4553],[91.3293,26.4456],[91.3048,26.4463],[91.2977,26.4529],[91.2983,26.4618],[91.3035,26.4698],[91.3095,26.4877],[91.3041,26.5032],[91.2903,26.5009],[91.2788,26.4987],[91.2549,26.4992],[91.2432,26.5025],[91.2432,26.5025],[91.2449,26.4888],[91.2455,26.481],[91.2471,26.4632],[91.2659,26.4451],[91.2515,26.4226],[91.2373,26.4037],[91.2324,26.3795],[91.2385,26.3593],[91.2347,26.3477],[91.2413,26.3357],[91.2507,26.3243],[91.2752,26.3286],[91.2707,26.3188],[91.2756,26.304],[91.2665,26.2937],[91.2635,26.2752],[91.2583,26.2659],[91.252,26.2548],[91.2555,26.2448],[91.2283,26.2397],[91.2164,26.2262],[91.2282,26.2221],[91.2309,26.2056],[91.2152,26.1817],[91.2356,26.1722],[91.2468,26.1589],[91.2336,26.1441],[91.2345,26.1365],[91.2544,26.1256],[91.2967,26.1202],[91.3164,26.1232],[91.3337,26.1268],[91.3515,26.1269],[91.3668,26.1205],[91.3924,26.1015],[91.4128,26.0994],[91.418,26.1446],[91.4117,26.1642],[91.4197,26.1771],[91.4255,26.197],[91.4224,26.2039],[91.41,26.2123],[91.4182,26.2248],[91.4382,26.2204],[91.4503,26.2332],[91.4508,26.2662],[91.4505,26.2736],[91.4755,26.2764],[91.4962,26.2815],[91.5106,26.2856],[91.53,26.2911],[91.5203,26.2967],[91.5262,26.3196],[91.5308,26.3306],[91.5291,26.3409],[91.5372,26.3544],[91.5403,26.3685],[91.5531,26.3711],[91.5616,26.382],[91.56,26.3976],[91.5521,26.4195],[91.5603,26.4379],[91.5555,26.4676],[91.5687,26.4757],[91.5812,26.4896],[91.5843,26.5035],[91.5952,26.5067],[91.5911,26.5189],[91.5829,26.5291],[91.5673,26.5313],[91.5561,26.5337]]]}},{"type":"Feature","properties":{"name":"Kamrup"},"geometry":{"type":"Polygon","coordinates":[[[91.5881,26.5074],[91.5843,26.5035],[91.5812,26.4896],[91.5687,26.4757],[91.5555,26.4676],[91.5603,26.4379],[91.5521,26.4195],[91.56,26.3976],[91.5616,26.382],[91.5531,26.3711],[91.5403,26.3685],[91.5372,26.3544],[91.5291,26.3409],[91.5308,26.3306],[91.5262,26.3196],[91.5203,26.2967],[91.53,26.2911],[91.5106,26.2856],[91.4962,26.2815],[91.4755,26.2764],[91.4505,26.2736],[91.4508,26.2662],[91.4503,26.2332],[91.4382,26.2204],[91.4182,26.2248],[91.41,26.2123],[91.4224,26.2039],[91.4255,26.197],[91.4197,26.1771],[91.4117,26.1642],[91.418,26.1446],[91.4128,26.0994],[91.3924,26.1015],[91.3668,26.1205],[91.3515,26.1269],[91.3337,26.1268],[91.3164,26.1232],[91.2967,26.1202],[91.2544,26.1256],[91.2345,26.1365],[91.2336,26.1441],[91.2119,26.1401],[91.1736,26.1339],[91.1508,26.1243],[91.1382,26.1213],[91.1196,26.1172],[91.1088,26.1196],[91.0914,26.1259],[91.074,26.1188],[91.0537,26.0999],[91.0486,26.0915],[91.0316,26.0845],[91.0215,26.0846],[91.0027,26.0923],[90.9893,26.0876],[90.9731,26.0754],[90.9587,26.0633],[90.936,26.0577],[90.949,26.0476],[90.9599,26.0416],[90.9857,26.0231],[91.0096,26.0175],[91.032,26.0073],[91.0549,26.0094],[91.0699,26.0025],[91.0832,25.9961],[91.0943,25.9807],[91.0911,25.9679],[91.082,25.9469],[91.0629,25.9264],[91.0516,25.9032],[91.0387,25.8825],[91.0295,25.8568],[91.0294,25.8567],[91.0242,25.833],[91.0114,25.814],[91.0048,25.7915],[91.0313,25.8017],[91.054,25.8178],[91.0769,25.8192],[91.0587,25.8033],[91.066,25.7948],[91.1208,25.8017],[91.1444,25.816],[91.1705,25.8148],[91.1932,25.8251],[91.201,25.808],[91.1887,25.7855],[91.1846,25.7616],[91.1858,25.7388],[91.1898,25.7108],[91.2096,25.6993],[91.2335,25.7025],[91.2671,25.7207],[91.286,25.7347],[91.3233,25.7915],[91.3406,25.8068],[91.3636,25.8103],[91.3961,25.8193],[91.4244,25.823],[91.4464,25.8141],[91.4715,25.8276],[91.4973,25.8319],[91.5219,25.8432],[91.5258,25.859],[91.5104,25.8384],[91.4809,25.8374],[91.4831,25.8595],[91.5008,25.8671],[91.531,25.8914],[91.5216,25.8924],[91.5018,25.8874],[91.5194,25.9092],[91.5285,25.9286],[91.5512,25.9416],[91.5653,25.9675],[91.5691,25.9898],[91.5915,25.9905],[91.611,25.989],[91.6334,25.9832],[91.6272,25.9626],[91.6309,25.9389],[91.6309,25.9161],[91.6109,25.9086],[91.6422,25.8858],[91.6655,25.8768],[91.6844,25.8886],[91.7004,25.9092],[91.7208,25.9289],[91.7223,25.9852],[91.7259,26.0116],[91.7417,26.0281],[91.7716,26.0481],[91.7717,26.0481],[91.7717,26.0482],[91.7665,26.0675],[91.7456,26.0684],[91.7269,26.0722],[91.7045,26.0696],[91.692,26.0616],[91.6863,26.073],[91.678,26.0696],[91.6615,26.0686],[91.6495,26.0799],[91.6353,26.0908],[91.6385,26.1081],[91.6311,26.1259],[91.6498,26.1352],[91.6407,26.1463],[91.6435,26.1504],[91.6668,26.1422],[91.6891,26.1427],[91.7126,26.1446],[91.7244,26.1516],[91.7388,26.1651],[91.7495,26.1694],[91.764,26.1932],[91.784,26.2118],[91.7874,26.2383],[91.788,26.2666],[91.7988,26.2736],[91.8128,26.2837],[91.8194,26.3049],[91.8185,26.3327],[91.8032,26.3449],[91.7896,26.3644],[91.7738,26.3821],[91.7678,26.4067],[91.7727,26.4211],[91.7775,26.4446],[91.7795,26.4484],[91.7474,26.4522],[91.7319,26.4415],[91.7204,26.4233],[91.6979,26.4153],[91.6627,26.4239],[91.6498,26.4373],[91.6425,26.4536],[91.6331,26.4668],[91.6148,26.4802],[91.598,26.4924],[91.5952,26.5067],[91.5881,26.5074]]]}},{"type":"Feature","properties":{"name":"Baksa"},"geometry":{"type":"Polygon","coordinates":[[[91.4083,26.7837],[91.3991,26.7728],[91.3755,26.7411],[91.3367,26.727],[91.2958,26.7334],[91.2741,26.7469],[91.2349,26.7574],[91.173,26.7575],[91.1341,26.7589],[91.0974,26.7669],[91.0692,26.7406],[91.0549,26.7284],[91.0369,26.7297],[90.991,26.7363],[90.9571,26.7274],[90.959,26.7302],[90.9418,26.7211],[90.9295,26.6951],[90.9127,26.6655],[90.9017,26.6409],[90.8934,26.6174],[90.8998,26.5998],[90.8784,26.5705],[90.8542,26.5486],[90.8464,26.5236],[90.8542,26.5218],[90.8692,26.5205],[90.8782,26.5254],[90.8871,26.5266],[90.8967,26.5273],[90.9115,26.5254],[90.9129,26.5362],[90.9181,26.5358],[90.9192,26.5282],[90.9199,26.5192],[90.924,26.5142],[90.9203,26.5079],[90.9289,26.504],[90.9362,26.4983],[90.9416,26.4921],[90.949,26.4999],[90.9708,26.5067],[90.9784,26.5123],[90.9768,26.5279],[90.9689,26.5401],[90.9763,26.5434],[90.9913,26.5435],[91.0015,26.5491],[91.0037,26.5587],[91.0048,26.5685],[91.0148,26.5681],[91.0241,26.5533],[91.021,26.5383],[91.0111,26.5226],[91.0129,26.5013],[91.0046,26.487],[91.0029,26.4519],[90.9721,26.4453],[90.9797,26.4348],[90.9745,26.4243],[90.9839,26.4196],[90.989,26.4103],[90.9993,26.403],[90.9986,26.3914],[91.0008,26.3831],[91.0127,26.3714],[91.0227,26.3605],[91.0314,26.3605],[91.041,26.3786],[91.0419,26.3807],[91.0464,26.3986],[91.0411,26.4136],[91.0415,26.4312],[91.0405,26.4428],[91.0334,26.4497],[91.0278,26.4539],[91.038,26.4654],[91.0361,26.4765],[91.0334,26.4872],[91.057,26.4968],[91.0859,26.4928],[91.0902,26.4749],[91.1047,26.4726],[91.1193,26.4951],[91.1362,26.4969],[91.1424,26.5074],[91.148,26.5266],[91.1379,26.5419],[91.1375,26.5567],[91.1365,26.5679],[91.147,26.5722],[91.1395,26.5798],[91.1331,26.5895],[91.1261,26.5975],[91.1352,26.6016],[91.1386,26.6114],[91.1504,26.6079],[91.1573,26.5937],[91.1663,26.5828],[91.1738,26.5716],[91.189,26.5601],[91.1998,26.5594],[91.2002,26.5478],[91.2138,26.5444],[91.2112,26.5527],[91.22,26.5596],[91.2314,26.5605],[91.2503,26.5577],[91.2693,26.5583],[91.2903,26.5571],[91.2906,26.5486],[91.2786,26.5424],[91.2612,26.5271],[91.2482,26.5201],[91.2384,26.5135],[91.2432,26.5025],[91.2549,26.4992],[91.2788,26.4987],[91.2903,26.5009],[91.3041,26.5032],[91.3095,26.4877],[91.3035,26.4698],[91.2983,26.4618],[91.2977,26.4529],[91.3048,26.4463],[91.3293,26.4456],[91.3407,26.4553],[91.346,26.4634],[91.3543,26.4729],[91.374,26.4801],[91.3953,26.4829],[91.4241,26.4876],[91.4451,26.4927],[91.4534,26.4989],[91.4485,26.5065],[91.4576,26.5114],[91.4852,26.5121],[91.4898,26.5025],[91.4972,26.4919],[91.5128,26.4897],[91.5218,26.4946],[91.5256,26.5021],[91.5269,26.5128],[91.528,26.5206],[91.5067,26.5282],[91.4992,26.5457],[91.5014,26.5687],[91.505,26.5963],[91.4966,26.6231],[91.4781,26.6443],[91.4697,26.6734],[91.4689,26.7031],[91.4367,26.7378],[91.4205,26.7586],[91.4083,26.7837],[91.4083,26.7837],[91.4083,26.7837]]]}},{"type":"Feature","properties":{"name":"Chirang"},"geometry":{"type":"Polygon","coordinates":[[[90.417,26.8475],[90.3572,26.844],[90.3484,26.8191],[90.338,26.8131],[90.3377,26.8129],[90.3427,26.768],[90.3445,26.7225],[90.3448,26.6769],[90.3374,26.6351],[90.352,26.5969],[90.3602,26.5773],[90.3626,26.5307],[90.3702,26.4973],[90.3889,26.478],[90.3976,26.4448],[90.403,26.399],[90.4263,26.3843],[90.4388,26.3585],[90.4444,26.3668],[90.4602,26.3592],[90.4612,26.378],[90.4718,26.3982],[90.497,26.4088],[90.526,26.3971],[90.5386,26.3792],[90.552,26.4014],[90.564,26.4296],[90.5638,26.4627],[90.5979,26.4562],[90.6244,26.4388],[90.6236,26.4618],[90.6331,26.4754],[90.6559,26.4786],[90.6849,26.4636],[90.7027,26.4395],[90.7313,26.4376],[90.7532,26.4282],[90.7748,26.4369],[90.8037,26.4326],[90.8037,26.4327],[90.8037,26.4327],[90.8029,26.4471],[90.8059,26.4526],[90.8221,26.4471],[90.837,26.4576],[90.8506,26.4531],[90.8504,26.4694],[90.8522,26.4826],[90.8425,26.4881],[90.8293,26.4931],[90.8282,26.5074],[90.817,26.5181],[90.8281,26.5266],[90.8464,26.5236],[90.8542,26.5486],[90.8784,26.5705],[90.8998,26.5998],[90.8934,26.6174],[90.9017,26.6409],[90.9127,26.6655],[90.9295,26.6951],[90.9418,26.7211],[90.9591,26.7302],[90.9591,26.7302],[90.9395,26.7321],[90.8082,26.7222],[90.7409,26.7208],[90.7045,26.7156],[90.6846,26.7235],[90.6639,26.7269],[90.6437,26.7262],[90.6267,26.7411],[90.5575,26.7582],[90.5121,26.7846],[90.417,26.8475]]]}},{"type":"Feature","properties":{"name":"Goalpara"},"geometry":{"type":"Polygon","coordinates":[[[90.6587,26.188],[90.6458,26.1861],[90.6211,26.1841],[90.6006,26.1601],[90.5718,26.15],[90.541,26.148],[90.5184,26.136],[90.4794,26.122],[90.4548,26.108],[90.426,26.106],[90.3993,26.11],[90.3603,26.122],[90.3472,26.1369],[90.326,26.1383],[90.289,26.1466],[90.2466,26.1345],[90.2312,26.1011],[90.2087,26.0919],[90.186,26.0797],[90.1584,26.0473],[90.1551,26.042],[90.1734,26.0298],[90.1707,26.0154],[90.1801,26.0027],[90.1853,25.9873],[90.1756,25.9782],[90.1792,25.9753],[90.1771,25.958],[90.1516,25.9481],[90.1359,25.9391],[90.1226,25.9356],[90.1197,25.9279],[90.1226,25.9247],[90.1489,25.9315],[90.1739,25.9258],[90.1904,25.9203],[90.2138,25.9208],[90.2659,25.928],[90.3233,25.9406],[90.3391,25.9598],[90.3724,25.9765],[90.3997,25.9763],[90.4181,25.9583],[90.4546,25.9644],[90.4778,25.9806],[90.5051,25.963],[90.5324,25.9272],[90.5329,25.9],[90.5172,25.8751],[90.5281,25.8714],[90.5503,25.8916],[90.5735,25.912],[90.591,25.9199],[90.6194,25.9091],[90.6123,25.8907],[90.6151,25.8681],[90.6279,25.8832],[90.6654,25.9006],[90.6878,25.9178],[90.7197,25.9192],[90.7445,25.9239],[90.7431,25.9035],[90.7453,25.8884],[90.7596,25.8894],[90.7783,25.8767],[90.7929,25.9036],[90.814,25.9181],[90.8368,25.9104],[90.8588,25.9114],[90.8809,25.9146],[90.8973,25.9031],[90.9156,25.8847],[90.9163,25.9027],[90.9368,25.9109],[90.9581,25.9016],[90.9675,25.8559],[91.0002,25.8561],[91.0294,25.8569],[91.0294,25.8567],[91.0295,25.8568],[91.0387,25.8825],[91.0516,25.9032],[91.0629,25.9264],[91.082,25.9469],[91.0911,25.9679],[91.0943,25.9807],[91.0832,25.9961],[91.0699,26.0025],[91.0549,26.0094],[91.032,26.0073],[91.0096,26.0175],[90.9857,26.0231],[90.9599,26.0416],[90.949,26.0476],[90.936,26.0577],[90.933,26.0615],[90.9232,26.056],[90.9089,26.0542],[90.8872,26.0586],[90.8693,26.0612],[90.8618,26.0727],[90.8499,26.0792],[90.8394,26.0751],[90.8294,26.0789],[90.8128,26.0843],[90.7784,26.0967],[90.7444,26.0998],[90.728,26.0978],[90.7178,26.0954],[90.7122,26.1015],[90.7067,26.1096],[90.6919,26.1153],[90.6783,26.1416],[90.6672,26.1692],[90.6635,26.1778],[90.6587,26.188]]]}},{"type":"Feature","properties":{"name":"Dhubri"},"geometry":{"type":"Polygon","coordinates":[[[90.2215,26.341],[90.2156,26.3382],[90.2069,26.3212],[90.1896,26.3049],[90.1688,26.3015],[90.1455,26.3082],[90.0981,26.2822],[90.1024,26.2618],[90.1291,26.2552],[90.1484,26.2465],[90.1459,26.2277],[90.1244,26.219],[90.1213,26.1993],[90.1187,26.172],[90.0992,26.1523],[90.0677,26.1305],[90.0594,26.1068],[90.0459,26.092],[90.0105,26.0988],[89.9825,26.0921],[89.9602,26.0821],[89.9234,26.0783],[89.8991,26.0823],[89.8745,26.1087],[89.8727,26.1324],[89.8755,26.152],[89.8806,26.1774],[89.8863,26.2174],[89.8883,26.2447],[89.891,26.2711],[89.8655,26.2848],[89.8428,26.2974],[89.8114,26.3112],[89.8113,26.3112],[89.7977,26.29],[89.7824,26.2906],[89.7675,26.2789],[89.7529,26.2795],[89.7574,26.2558],[89.7468,26.2501],[89.7364,26.252],[89.7223,26.2606],[89.719,26.2629],[89.7247,26.2454],[89.7381,26.2308],[89.7297,26.2185],[89.7127,26.2275],[89.7034,26.2225],[89.7179,26.214],[89.728,26.2006],[89.7128,26.1862],[89.7,26.1786],[89.7167,26.1754],[89.732,26.1705],[89.7138,26.1642],[89.7185,26.1549],[89.7011,26.1511],[89.7042,26.1429],[89.7187,26.1384],[89.7342,26.1343],[89.7205,26.1282],[89.7205,26.1269],[89.7314,26.1201],[89.7552,26.1086],[89.7662,26.0957],[89.7623,26.0706],[89.7805,26.0672],[89.7833,26.0627],[89.7835,26.0523],[89.7893,26.0455],[89.7931,26.0433],[89.7964,26.0363],[89.7997,26.0284],[89.7858,26.0179],[89.7756,26.0044],[89.7896,26.0044],[89.7992,26.0047],[89.8014,26.0002],[89.8063,26.0085],[89.8203,25.9913],[89.8232,25.9756],[89.8176,25.9627],[89.8325,25.9473],[89.8377,25.9574],[89.8433,25.9738],[89.8643,25.9503],[89.8736,25.9432],[89.8459,25.9382],[89.8464,25.9206],[89.8377,25.9204],[89.8332,25.9085],[89.8515,25.9052],[89.8798,25.9106],[89.8829,25.9033],[89.8619,25.8757],[89.8619,25.8757],[89.8619,25.8757],[89.8774,25.8635],[89.8993,25.8752],[89.9141,25.8876],[89.9316,25.8979],[89.9615,25.9159],[89.9955,25.9475],[90.0241,25.9645],[90.0333,25.9765],[90.0462,25.9817],[90.0554,25.9951],[90.0792,26.0118],[90.0859,26.0243],[90.1014,26.0351],[90.1306,26.0398],[90.1551,26.042],[90.1584,26.0473],[90.186,26.0797],[90.2087,26.0919],[90.2312,26.1011],[90.2466,26.1345],[90.289,26.1466],[90.326,26.1383],[90.365,26.139],[90.3773,26.1662],[90.3948,26.1812],[90.4305,26.2039],[90.4302,26.2158],[90.4499,26.2089],[90.4481,26.2305],[90.4732,26.2306],[90.4564,26.2418],[90.4679,26.2392],[90.4768,26.2472],[90.4713,26.2762],[90.4709,26.2901],[90.4545,26.296],[90.4547,26.2962],[90.4547,26.2962],[90.4209,26.2898],[90.4065,26.268],[90.4017,26.2478],[90.3792,26.2261],[90.3353,26.205],[90.3171,26.1926],[90.2949,26.1919],[90.2658,26.1981],[90.2687,26.2183],[90.2733,26.2336],[90.2663,26.2377],[90.2458,26.2493],[90.2363,26.2659],[90.2351,26.2832],[90.2172,26.2892],[90.2248,26.3066],[90.2275,26.3113],[90.225,26.3297],[90.2215,26.341]]]}},{"type":"Feature","properties":{"name":"Shivsagar"},"geometry":{"type":"Polygon","coordinates":[[[94.745,27.2094],[94.7289,27.2074],[94.7198,27.1785],[94.7042,27.1906],[94.6994,27.1993],[94.6824,27.186],[94.6525,27.1851],[94.6356,27.1701],[94.6175,27.1299],[94.5917,27.086],[94.5916,27.086],[94.5916,27.086],[94.5788,27.0748],[94.576,27.0615],[94.5645,27.0484],[94.5578,27.0414],[94.5484,27.0348],[94.5421,27.0164],[94.5302,27.01],[94.5208,27.0017],[94.5071,26.9846],[94.4877,26.9762],[94.475,26.9706],[94.468,26.9521],[94.4636,26.9415],[94.4413,26.9289],[94.4152,26.9142],[94.398,26.9034],[94.4124,26.8881],[94.4412,26.8838],[94.4707,26.8834],[94.4811,26.8645],[94.4787,26.8503],[94.4911,26.8313],[94.4943,26.8188],[94.4898,26.794],[94.4868,26.7806],[94.5053,26.7674],[94.5202,26.7494],[94.521,26.7409],[94.5165,26.7226],[94.519,26.7174],[94.5264,26.7125],[94.5345,26.7091],[94.543,26.7054],[94.5525,26.7031],[94.5599,26.7021],[94.5715,26.6989],[94.5803,26.6822],[94.592,26.6771],[94.5921,26.6772],[94.6014,26.6863],[94.6077,26.6827],[94.6153,26.6764],[94.621,26.6668],[94.634,26.6695],[94.6555,26.6721],[94.6823,26.6795],[94.6984,26.6907],[94.7222,26.7071],[94.7367,26.7177],[94.741,26.7264],[94.7491,26.723],[94.7563,26.7203],[94.7626,26.7278],[94.7672,26.7376],[94.7781,26.7429],[94.7948,26.7501],[94.8018,26.7568],[94.7942,26.763],[94.8039,26.7661],[94.8113,26.773],[94.8154,26.7871],[94.8184,26.7962],[94.8243,26.8039],[94.8358,26.8176],[94.8359,26.8176],[94.7746,26.8812],[94.8178,26.9522],[94.8132,27.0078],[94.8391,27.0373],[94.8391,27.0374],[94.8391,27.0373],[94.8173,27.0417],[94.8133,27.0499],[94.8061,27.0592],[94.7772,27.0652],[94.7567,27.0842],[94.7577,27.093],[94.7755,27.1113],[94.7713,27.1256],[94.7749,27.1436],[94.7655,27.1556],[94.7698,27.1693],[94.7664,27.1804],[94.7457,27.2003],[94.745,27.2094],[94.745,27.2094]]]}},{"type":"Feature","properties":{"name":"Jorhat"},"geometry":{"type":"Polygon","coordinates":[[[94.3981,26.9034],[94.3836,26.8926],[94.3665,26.8623],[94.3461,26.8587],[94.3216,26.8541],[94.3003,26.8524],[94.2808,26.8515],[94.2586,26.8457],[94.2422,26.8449],[94.2199,26.8454],[94.2021,26.8397],[94.1985,26.8283],[94.1644,26.8109],[94.1381,26.8078],[94.1136,26.8129],[94.0988,26.8048],[94.0866,26.8124],[94.0734,26.8099],[94.0554,26.7941],[94.0338,26.7871],[94.0084,26.7844],[93.987,26.7675],[93.9772,26.7379],[93.9743,26.7287],[93.9776,26.7156],[93.9978,26.7149],[94.0008,26.6969],[94.0221,26.6976],[94.0328,26.6882],[94.0432,26.6884],[94.044,26.6797],[94.0419,26.6644],[94.0421,26.65],[94.0489,26.638],[94.0499,26.6271],[94.0541,26.6193],[94.0639,26.6174],[94.0724,26.6151],[94.0849,26.6063],[94.0954,26.5947],[94.0882,26.581],[94.0819,26.5716],[94.0814,26.561],[94.0714,26.5463],[94.0766,26.5354],[94.0887,26.5338],[94.1008,26.5248],[94.1144,26.5117],[94.1138,26.4996],[94.1075,26.4807],[94.1038,26.4622],[94.0974,26.446],[94.1023,26.4281],[94.1285,26.4037],[94.1166,26.3794],[94.1193,26.3528],[94.1311,26.3233],[94.1426,26.3114],[94.1653,26.3102],[94.1654,26.3102],[94.1653,26.3102],[94.1692,26.3224],[94.1739,26.3387],[94.1742,26.3588],[94.1723,26.378],[94.1769,26.3963],[94.1895,26.418],[94.2058,26.4355],[94.2192,26.4521],[94.2499,26.4814],[94.2724,26.5088],[94.2864,26.5114],[94.2826,26.4954],[94.2861,26.473],[94.2892,26.4445],[94.2979,26.4249],[94.3144,26.4175],[94.3221,26.4336],[94.3396,26.4428],[94.3511,26.4553],[94.3594,26.4628],[94.3753,26.4701],[94.3868,26.4839],[94.3983,26.4894],[94.405,26.5043],[94.405,26.5129],[94.4116,26.5356],[94.4056,26.5591],[94.4181,26.5705],[94.4498,26.5872],[94.4598,26.5922],[94.4582,26.6103],[94.4829,26.6225],[94.5016,26.628],[94.5156,26.6408],[94.525,26.6493],[94.5497,26.6572],[94.5605,26.647],[94.5706,26.6389],[94.5792,26.6526],[94.5921,26.6589],[94.602,26.6654],[94.5921,26.6771],[94.5803,26.6822],[94.5716,26.6989],[94.5599,26.7021],[94.5525,26.7031],[94.5431,26.7054],[94.5345,26.7091],[94.5264,26.7125],[94.519,26.7174],[94.5165,26.7226],[94.521,26.7409],[94.5202,26.7494],[94.5053,26.7674],[94.4868,26.7806],[94.4899,26.794],[94.4943,26.8188],[94.4911,26.8313],[94.4788,26.8503],[94.4812,26.8645],[94.4707,26.8834],[94.4413,26.8838],[94.4125,26.8881],[94.3981,26.9034]]]}},{"type":"Feature","properties":{"name":"Dibrugarh"},"geometry":{"type":"Polygon","coordinates":[[[95.1985,27.6338],[95.1911,27.6308],[95.1565,27.6194],[95.1178,27.6074],[95.0927,27.5888],[95.0465,27.5906],[95.0248,27.5861],[94.9798,27.5771],[94.9489,27.5467],[94.9262,27.5337],[94.8944,27.514],[94.8708,27.4916],[94.8423,27.4673],[94.8138,27.4461],[94.8089,27.4315],[94.7893,27.4139],[94.7646,27.4093],[94.7497,27.3862],[94.7361,27.3713],[94.7186,27.3603],[94.6849,27.3444],[94.6819,27.3171],[94.661,27.3047],[94.6544,27.2815],[94.6372,27.263],[94.6191,27.2671],[94.609,27.2557],[94.604,27.2321],[94.5953,27.2191],[94.5842,27.2044],[94.5855,27.1864],[94.5758,27.1541],[94.5772,27.1347],[94.5693,27.1228],[94.5665,27.1184],[94.5663,27.1185],[94.5665,27.1184],[94.5752,27.1075],[94.5812,27.0998],[94.5867,27.0907],[94.5917,27.086],[94.5917,27.086],[94.6175,27.1299],[94.6356,27.1701],[94.6525,27.1851],[94.6824,27.186],[94.6995,27.1993],[94.7042,27.1906],[94.7199,27.1785],[94.7289,27.2074],[94.7458,27.2003],[94.7665,27.1804],[94.7699,27.1693],[94.7655,27.1556],[94.775,27.1436],[94.7714,27.1256],[94.7756,27.1113],[94.7578,27.093],[94.7567,27.0842],[94.7773,27.0652],[94.8062,27.0592],[94.8133,27.0499],[94.8173,27.0417],[94.8391,27.0373],[94.8539,27.0611],[94.8859,27.0998],[94.944,27.1502],[94.966,27.168],[94.9732,27.1319],[94.9818,27.1098],[94.978,27.0932],[94.9947,27.0884],[95.0234,27.0856],[95.0437,27.0947],[95.0549,27.0817],[95.0741,27.0778],[95.1044,27.0752],[95.114,27.0713],[95.126,27.0743],[95.1341,27.0754],[95.1469,27.0653],[95.1602,27.0656],[95.1703,27.0803],[95.177,27.0799],[95.1807,27.0957],[95.1977,27.099],[95.2174,27.102],[95.235,27.1091],[95.2384,27.125],[95.2541,27.1208],[95.2641,27.1295],[95.2924,27.131],[95.3235,27.1253],[95.345,27.1087],[95.3649,27.0789],[95.3697,27.05],[95.3697,27.05],[95.3682,27.0454],[95.3694,27.0403],[95.3822,27.046],[95.4009,27.0548],[95.4216,27.0696],[95.4423,27.0719],[95.454,27.0729],[95.4609,27.0885],[95.4552,27.0992],[95.4612,27.1154],[95.4631,27.1304],[95.456,27.1482],[95.4656,27.1531],[95.4708,27.1605],[95.4835,27.1769],[95.4835,27.1769],[95.4725,27.1875],[95.4613,27.1933],[95.4536,27.1783],[95.4457,27.1684],[95.4367,27.1909],[95.4458,27.1978],[95.4614,27.2086],[95.4515,27.2276],[95.458,27.2395],[95.4622,27.2526],[95.4487,27.2675],[95.4637,27.2775],[95.4712,27.2895],[95.4629,27.3024],[95.4414,27.3023],[95.4266,27.3086],[95.4116,27.3206],[95.3809,27.3273],[95.3723,27.3165],[95.3468,27.3272],[95.3195,27.325],[95.3026,27.3352],[95.2879,27.3453],[95.2704,27.3438],[95.2546,27.3457],[95.2477,27.3608],[95.2358,27.3686],[95.2192,27.389],[95.2259,27.4045],[95.2264,27.4219],[95.24,27.4366],[95.261,27.4454],[95.2667,27.4589],[95.2652,27.475],[95.2775,27.4788],[95.2735,27.4933],[95.2791,27.4994],[95.2902,27.5072],[95.3002,27.515],[95.3179,27.5176],[95.3055,27.5449],[95.2889,27.592],[95.2726,27.61],[95.2369,27.5825],[95.2102,27.584],[95.1906,27.5989],[95.2004,27.6217],[95.1985,27.6338],[95.1985,27.6338]]]}},{"type":"Feature","properties":{"name":"Nagaon"},"geometry":{"type":"Polygon","coordinates":[[[93.3057,26.6488],[93.2903,26.6467],[93.2827,26.6368],[93.2553,26.6348],[93.2403,26.6309],[93.2292,26.6041],[93.2147,26.578],[93.1809,26.5657],[93.1629,26.5558],[93.152,26.5396],[93.12,26.5386],[93.0984,26.5404],[93.0811,26.5479],[93.0529,26.5479],[93.0056,26.5511],[92.9873,26.5657],[92.94,26.5691],[92.9185,26.5499],[92.8963,26.548],[92.8875,26.5462],[92.8689,26.5357],[92.843,26.5371],[92.7964,26.5113],[92.7702,26.5099],[92.7635,26.4913],[92.7563,26.4761],[92.7474,26.4671],[92.7258,26.4771],[92.7207,26.4888],[92.6874,26.465],[92.6698,26.4723],[92.6466,26.4722],[92.6035,26.4634],[92.5766,26.4551],[92.5597,26.4586],[92.5333,26.4636],[92.4855,26.4552],[92.4644,26.4522],[92.4518,26.4694],[92.4329,26.4735],[92.4162,26.47],[92.4266,26.4526],[92.4364,26.436],[92.4495,26.4191],[92.4471,26.4059],[92.4375,26.382],[92.4437,26.3572],[92.4561,26.3365],[92.4799,26.3251],[92.5099,26.3319],[92.547,26.3432],[92.5494,26.322],[92.556,26.3055],[92.5466,26.2777],[92.5389,26.2539],[92.5082,26.2461],[92.4698,26.2436],[92.453,26.2401],[92.4422,26.2301],[92.4429,26.2128],[92.4464,26.2012],[92.4336,26.194],[92.437,26.1736],[92.4337,26.1644],[92.4156,26.1596],[92.4072,26.1474],[92.4165,26.1263],[92.4212,26.1101],[92.4123,26.102],[92.4099,26.0999],[92.4066,26.091],[92.4065,26.0826],[92.4223,26.0806],[92.4319,26.0801],[92.4412,26.0865],[92.4495,26.0961],[92.4593,26.1021],[92.4704,26.1104],[92.4797,26.1081],[92.5039,26.1104],[92.5142,26.1091],[92.5257,26.111],[92.5233,26.0967],[92.5217,26.0852],[92.5197,26.0689],[92.5314,26.065],[92.5404,26.0668],[92.5497,26.0758],[92.5639,26.0797],[92.5764,26.0751],[92.5754,26.0611],[92.5878,26.0503],[92.5963,26.041],[92.5901,26.0285],[92.5836,26.0092],[92.5842,25.9957],[92.5921,25.9893],[92.5701,25.9794],[92.5703,25.9687],[92.553,25.9429],[92.5571,25.9333],[92.5722,25.9299],[92.5855,25.9331],[92.5958,25.9404],[92.6075,25.9441],[92.6254,25.9534],[92.6358,25.9609],[92.65,25.9663],[92.6587,25.9734],[92.6563,25.9861],[92.6664,25.9938],[92.6781,25.9931],[92.6866,25.9906],[92.6976,25.9876],[92.7092,25.9868],[92.7133,25.9948],[92.7121,26.0048],[92.7172,26.0236],[92.7531,26.027],[92.7358,26.0442],[92.7305,26.0664],[92.7208,26.0705],[92.7242,26.0817],[92.6989,26.0907],[92.704,26.1081],[92.6838,26.1076],[92.6729,26.122],[92.6835,26.1344],[92.7052,26.1292],[92.7094,26.1441],[92.7154,26.1583],[92.728,26.1682],[92.7503,26.1717],[92.7686,26.1746],[92.7728,26.191],[92.768,26.2094],[92.7854,26.2225],[92.8041,26.2258],[92.8185,26.2204],[92.826,26.2324],[92.8401,26.2456],[92.8471,26.2645],[92.8605,26.2545],[92.8814,26.2463],[92.8946,26.259],[92.9051,26.2717],[92.9219,26.2744],[92.9416,26.2878],[92.9412,26.3057],[92.9275,26.3135],[92.9111,26.3173],[92.9201,26.3334],[92.9168,26.3375],[92.8971,26.3411],[92.8863,26.3415],[92.898,26.3495],[92.9079,26.3529],[92.9235,26.3551],[92.9428,26.3583],[92.9545,26.3639],[92.9716,26.3738],[92.9891,26.3771],[93.0087,26.3811],[93.0372,26.3885],[93.0517,26.3902],[93.0488,26.3786],[93.0629,26.3745],[93.072,26.3778],[93.093,26.3903],[93.0767,26.3863],[93.0823,26.3944],[93.1003,26.4034],[93.0989,26.3912],[93.1159,26.3979],[93.1075,26.4066],[93.1238,26.4174],[93.1172,26.4247],[93.1251,26.4316],[93.1353,26.4416],[93.1297,26.4441],[93.121,26.4509],[93.1186,26.4369],[93.1055,26.4323],[93.1075,26.4232],[93.0947,26.4167],[93.0868,26.4256],[93.0727,26.4339],[93.074,26.4415],[93.0907,26.4519],[93.0767,26.4498],[93.0665,26.4521],[93.0562,26.4444],[93.0267,26.4367],[93.0093,26.4379],[93.0114,26.4537],[93.0265,26.4653],[93.0441,26.4805],[93.047,26.4914],[93.0696,26.4957],[93.0899,26.4977],[93.1025,26.4878],[93.1205,26.4871],[93.1336,26.4947],[93.1463,26.5091],[93.1625,26.5051],[93.186,26.5216],[93.2105,26.5104],[93.1965,26.4955],[93.1797,26.4892],[93.1606,26.4795],[93.1804,26.4834],[93.1989,26.4886],[93.2084,26.4653],[93.2113,26.4736],[93.2116,26.4814],[93.2209,26.4916],[93.2408,26.4871],[93.2533,26.4762],[93.2723,26.4719],[93.2734,26.4621],[93.2849,26.4714],[93.2918,26.4588],[93.2921,26.4729],[93.2721,26.4788],[93.2757,26.4938],[93.2658,26.4865],[93.2636,26.4891],[93.2494,26.4982],[93.2511,26.5048],[93.2384,26.5101],[93.2541,26.5224],[93.2746,26.5265],[93.2936,26.5317],[93.3009,26.5322],[93.3003,26.5314],[93.3012,26.5321],[93.3031,26.5344],[93.2931,26.5397],[93.2926,26.542],[93.2947,26.5455],[93.299,26.558],[93.2927,26.5695],[93.285,26.5873],[93.2892,26.5893],[93.3079,26.5889],[93.3132,26.5923],[93.3181,26.6011],[93.319,26.6088],[93.3095,26.6148],[93.3082,26.6202],[93.3159,26.6267],[93.3182,26.63],[93.3155,26.6321],[93.3154,26.6364],[93.3074,26.6423],[93.3057,26.6488],[93.3057,26.6488]]]}},{"type":"Feature","properties":{"name":"Majuli"},"geometry":{"type":"Polygon","coordinates":[[[94.5608,27.1196],[94.5454,27.1113],[94.5255,27.0957],[94.5133,27.0824],[94.5023,27.0615],[94.4833,27.0768],[94.4645,27.0587],[94.4323,27.0605],[94.4198,27.0448],[94.4082,27.0308],[94.3993,27.0372],[94.3754,27.0399],[94.3696,27.0372],[94.352,27.033],[94.3335,27.0215],[94.3126,27.0338],[94.299,27.0249],[94.2838,27.0371],[94.2618,27.0288],[94.2533,27.0095],[94.2322,27.0218],[94.2159,26.9989],[94.2125,26.977],[94.197,26.9719],[94.1792,26.9757],[94.1644,26.9862],[94.1665,26.959],[94.1589,26.9352],[94.1351,26.9467],[94.1196,26.9357],[94.1346,26.9127],[94.1066,26.9155],[94.0846,26.9025],[94.0691,26.9168],[94.0529,26.9202],[94.0371,26.9112],[94.0251,26.8879],[94.0092,26.8744],[93.9871,26.876],[93.9585,26.8719],[93.9156,26.8676],[93.9084,26.8326],[93.894,26.81],[93.8676,26.7918],[93.8355,26.7963],[93.8075,26.8061],[93.7867,26.8047],[93.7777,26.7986],[93.7708,26.7967],[93.77,26.7912],[93.7635,26.7846],[93.792,26.7698],[93.788,26.7617],[93.7795,26.7582],[93.7676,26.7555],[93.7537,26.7549],[93.7432,26.7493],[93.7551,26.7445],[93.7995,26.7462],[93.8236,26.7523],[93.8457,26.7648],[93.8661,26.7795],[93.8877,26.7746],[93.9051,26.7542],[93.9312,26.7379],[93.9495,26.7462],[93.9595,26.765],[93.9793,26.7778],[94.0084,26.7844],[94.0338,26.7871],[94.0554,26.7941],[94.0734,26.8099],[94.0866,26.8124],[94.0988,26.8048],[94.1136,26.8129],[94.1381,26.8078],[94.1644,26.8109],[94.1985,26.8283],[94.2021,26.8397],[94.2199,26.8454],[94.2422,26.8449],[94.2586,26.8457],[94.2808,26.8515],[94.3003,26.8524],[94.3216,26.8541],[94.3461,26.8587],[94.3665,26.8623],[94.3836,26.8926],[94.3981,26.9034],[94.4152,26.9142],[94.4413,26.9289],[94.4636,26.9415],[94.468,26.9521],[94.475,26.9706],[94.4877,26.9762],[94.5071,26.9846],[94.5208,27.0017],[94.5302,27.01],[94.5422,27.0164],[94.5484,27.0348],[94.5579,27.0414],[94.5646,27.0484],[94.5761,27.0615],[94.5788,27.0748],[94.5917,27.086],[94.5867,27.0907],[94.5812,27.0998],[94.5752,27.1075],[94.5665,27.1184],[94.5664,27.1184],[94.5608,27.1196],[94.5608,27.1196]]]}},{"type":"Feature","properties":{"name":"Karimganj"},"geometry":{"type":"Polygon","coordinates":[[[92.2961,24.911],[92.2757,24.8985],[92.2296,24.8951],[92.2435,24.8831],[92.2343,24.8572],[92.2532,24.834],[92.2556,24.827],[92.2753,24.807],[92.2794,24.7886],[92.2801,24.764],[92.2838,24.7391],[92.2791,24.7133],[92.2587,24.6818],[92.254,24.6678],[92.2466,24.6364],[92.2344,24.5918],[92.2304,24.5487],[92.215,24.512],[92.215,24.512],[92.2208,24.5059],[92.2301,24.5055],[92.234,24.5029],[92.2387,24.4944],[92.23,24.4852],[92.2284,24.476],[92.2301,24.4658],[92.2353,24.4571],[92.245,24.4486],[92.2557,24.4415],[92.2554,24.4248],[92.2623,24.4146],[92.2634,24.4045],[92.2696,24.3979],[92.2693,24.3896],[92.268,24.3826],[92.2657,24.3729],[92.2552,24.3525],[92.2119,24.26],[92.2606,24.2611],[92.2922,24.2622],[92.2956,24.2625],[92.4214,24.2636],[92.4214,24.2635],[92.4214,24.2635],[92.4369,24.2768],[92.4514,24.2953],[92.4803,24.35],[92.4916,24.3827],[92.4987,24.4079],[92.5058,24.4484],[92.5078,24.4792],[92.5078,24.5011],[92.5098,24.5282],[92.5165,24.5631],[92.5129,24.5819],[92.5041,24.606],[92.5087,24.6246],[92.5048,24.6421],[92.5035,24.663],[92.4973,24.6848],[92.5092,24.7102],[92.5217,24.7249],[92.5251,24.7451],[92.5443,24.7627],[92.545,24.7821],[92.5534,24.8126],[92.5687,24.8298],[92.5698,24.8705],[92.5416,24.8663],[92.5195,24.8643],[92.4869,24.8717],[92.4869,24.8717],[92.4812,24.8575],[92.4378,24.8635],[92.4141,24.8524],[92.3915,24.8468],[92.3754,24.8594],[92.3614,24.8666],[92.3476,24.885],[92.3426,24.8822],[92.3276,24.8908],[92.3032,24.9079],[92.2961,24.911]]]}},{"type":"Feature","properties":{"name":"Dima Hasao"},"geometry":{"type":"Polygon","coordinates":[[[93.0034,25.7972],[92.9931,25.7925],[92.9784,25.7523],[92.9688,25.7628],[92.965,25.7872],[92.9287,25.7765],[92.9273,25.7523],[92.8859,25.7305],[92.8327,25.7179],[92.8208,25.7038],[92.8066,25.6743],[92.7857,25.6584],[92.7876,25.6367],[92.7652,25.6092],[92.7668,25.5963],[92.7492,25.5812],[92.7145,25.5709],[92.6803,25.5638],[92.6723,25.5509],[92.6589,25.5475],[92.6484,25.5363],[92.6418,25.5251],[92.6305,25.5062],[92.6205,25.494],[92.6085,25.4909],[92.5883,25.4782],[92.5725,25.4665],[92.5691,25.4432],[92.5807,25.4458],[92.5962,25.4385],[92.6011,25.4206],[92.6075,25.3935],[92.6263,25.4024],[92.631,25.4107],[92.6411,25.4035],[92.6492,25.4066],[92.6648,25.3954],[92.6904,25.3795],[92.7082,25.367],[92.7241,25.36],[92.7324,25.3549],[92.7364,25.344],[92.7504,25.3253],[92.7789,25.3172],[92.7794,25.2906],[92.7816,25.2587],[92.777,25.2448],[92.7679,25.2249],[92.7886,25.2196],[92.826,25.2232],[92.814,25.1975],[92.7785,25.1893],[92.7553,25.1876],[92.7365,25.1873],[92.7099,25.1772],[92.6944,25.1722],[92.6791,25.1648],[92.6709,25.1649],[92.6591,25.1487],[92.645,25.1394],[92.6312,25.1245],[92.6255,25.1093],[92.6033,25.113],[92.5862,25.1183],[92.5643,25.1193],[92.5395,25.1248],[92.5294,25.1247],[92.5241,25.1205],[92.5304,25.107],[92.5419,25.0885],[92.5617,25.0937],[92.5949,25.0971],[92.6166,25.0941],[92.6359,25.1012],[92.656,25.1039],[92.6773,25.1005],[92.6983,25.1003],[92.719,25.1064],[92.7359,25.1148],[92.732,25.1332],[92.7505,25.1268],[92.7639,25.1126],[92.7694,25.092],[92.7928,25.0773],[92.8278,25.0637],[92.8388,25.0462],[92.8618,25.056],[92.8845,25.0607],[92.9283,25.0706],[92.9506,25.0629],[92.9611,25.0803],[92.9844,25.0825],[93.0099,25.0879],[93.0321,25.0952],[93.0458,25.0846],[93.0224,25.0661],[93.0241,25.0462],[93.0404,25.0293],[93.0596,25.0166],[93.0616,24.998],[93.0812,24.9918],[93.1754,24.9906],[93.1912,24.986],[93.2051,24.9755],[93.225,24.9794],[93.2345,24.9692],[93.249,24.9656],[93.2502,24.9664],[93.2511,24.9671],[93.251,24.9672],[93.2513,24.9679],[93.2516,24.9686],[93.2508,24.9797],[93.2541,24.9912],[93.2609,24.9971],[93.2515,24.9976],[93.2455,24.9982],[93.2474,25.0099],[93.2551,25.0181],[93.2623,25.0288],[93.2661,25.0392],[93.2829,25.0414],[93.2956,25.0382],[93.303,25.0382],[93.3067,25.0493],[93.3092,25.062],[93.3206,25.0777],[93.3342,25.0848],[93.3381,25.0992],[93.3429,25.1104],[93.3455,25.1201],[93.3492,25.1325],[93.3467,25.1467],[93.349,25.1601],[93.3591,25.1786],[93.3688,25.1905],[93.3763,25.202],[93.3835,25.2141],[93.3867,25.2308],[93.4003,25.2456],[93.4138,25.2494],[93.4215,25.2607],[93.4371,25.2714],[93.457,25.2785],[93.4719,25.2927],[93.4703,25.294],[93.4591,25.3049],[93.4569,25.314],[93.4542,25.3245],[93.4528,25.3321],[93.4639,25.3437],[93.4718,25.3553],[93.4756,25.3675],[93.4637,25.3871],[93.4633,25.401],[93.4574,25.4132],[93.4403,25.4237],[93.4122,25.4251],[93.3913,25.4518],[93.3841,25.4627],[93.3727,25.4764],[93.3546,25.4986],[93.3289,25.5276],[93.3188,25.5136],[93.2988,25.5191],[93.2826,25.5162],[93.2662,25.5191],[93.2439,25.5262],[93.2166,25.5289],[93.2059,25.535],[93.2008,25.543],[93.1842,25.5625],[93.1718,25.5776],[93.1822,25.5972],[93.1796,25.6195],[93.1655,25.6375],[93.1393,25.6435],[93.1363,25.6683],[93.143,25.6892],[93.1476,25.7022],[93.148,25.7131],[93.1331,25.7211],[93.1299,25.7331],[93.1179,25.7401],[93.1062,25.7487],[93.0949,25.7481],[93.083,25.7426],[93.0743,25.741],[93.0704,25.7491],[93.061,25.7524],[93.053,25.7557],[93.022,25.766],[92.9989,25.7647],[93.0034,25.7972],[93.0034,25.7972]]]}},{"type":"Feature","properties":{"name":"Karbi Anglong"},"geometry":{"type":"Polygon","coordinates":[[[93.4999,26.5627],[93.499,26.5627],[93.4894,26.5573],[93.4761,26.5423],[93.4816,26.5366],[93.4603,26.5269],[93.4573,26.5296],[93.4391,26.5301],[93.4072,26.523],[93.3949,26.5329],[93.3508,26.5357],[93.3148,26.5333],[93.3009,26.5322],[93.2936,26.5317],[93.2746,26.5265],[93.2541,26.5224],[93.2384,26.5101],[93.2511,26.5048],[93.2494,26.4982],[93.2636,26.4891],[93.2658,26.4865],[93.2757,26.4938],[93.2721,26.4788],[93.2921,26.4729],[93.2918,26.4588],[93.2849,26.4714],[93.2734,26.4621],[93.2723,26.4719],[93.2533,26.4762],[93.2408,26.4871],[93.2209,26.4916],[93.2116,26.4814],[93.2113,26.4736],[93.2084,26.4653],[93.1989,26.4886],[93.1804,26.4834],[93.1606,26.4795],[93.1797,26.4892],[93.1965,26.4955],[93.2105,26.5104],[93.186,26.5216],[93.1625,26.5051],[93.1463,26.5091],[93.1336,26.4947],[93.1205,26.4871],[93.1025,26.4878],[93.0899,26.4977],[93.0696,26.4957],[93.047,26.4914],[93.0441,26.4805],[93.0265,26.4653],[93.0114,26.4537],[93.0093,26.4379],[93.0267,26.4367],[93.0562,26.4444],[93.0665,26.4521],[93.0767,26.4498],[93.0907,26.4519],[93.074,26.4415],[93.0727,26.4339],[93.0868,26.4256],[93.0947,26.4167],[93.1075,26.4232],[93.1055,26.4323],[93.1186,26.4369],[93.121,26.4509],[93.1297,26.4441],[93.1353,26.4416],[93.1251,26.4316],[93.1172,26.4247],[93.1238,26.4174],[93.1075,26.4066],[93.1159,26.3979],[93.0989,26.3912],[93.1003,26.4034],[93.0823,26.3944],[93.0767,26.3863],[93.093,26.3903],[93.072,26.3778],[93.0629,26.3745],[93.0488,26.3786],[93.0517,26.3902],[93.0372,26.3885],[93.0087,26.3811],[92.9891,26.3771],[92.9716,26.3738],[92.9545,26.3639],[92.9428,26.3583],[92.9235,26.3551],[92.9079,26.3529],[92.898,26.3495],[92.8863,26.3415],[92.8971,26.3411],[92.9168,26.3375],[92.9201,26.3334],[92.9111,26.3173],[92.9275,26.3135],[92.9412,26.3057],[92.9416,26.2878],[92.9219,26.2744],[92.9051,26.2717],[92.8946,26.259],[92.8814,26.2463],[92.8605,26.2545],[92.8471,26.2645],[92.8401,26.2456],[92.826,26.2324],[92.8185,26.2204],[92.8169,26.2099],[92.8257,26.1907],[92.8107,26.1788],[92.7954,26.1745],[92.814,26.1681],[92.8409,26.1687],[92.8726,26.1686],[92.9092,26.1648],[92.934,26.1644],[92.9516,26.1524],[92.9533,26.1309],[92.9369,26.1156],[92.9381,26.1028],[92.9605,26.1007],[92.9811,26.0925],[93.0016,26.081],[93.0209,26.0761],[93.0348,26.0688],[93.0468,26.0532],[93.0625,26.048],[93.08,26.0454],[93.0914,26.0445],[93.1055,26.042],[93.0964,26.0077],[93.1122,26.0024],[93.132,25.9894],[93.147,25.9733],[93.1565,25.9537],[93.1611,25.932],[93.1725,25.9166],[93.1835,25.8815],[93.2013,25.859],[93.2226,25.8347],[93.2384,25.8167],[93.2455,25.7939],[93.2487,25.7747],[93.2468,25.753],[93.2323,25.7364],[93.2281,25.7124],[93.2079,25.7043],[93.174,25.6992],[93.143,25.6891],[93.1363,25.6683],[93.1393,25.6435],[93.1655,25.6375],[93.1796,25.6195],[93.1822,25.5972],[93.1718,25.5776],[93.1842,25.5625],[93.2008,25.543],[93.2059,25.535],[93.2166,25.5289],[93.2439,25.5262],[93.2662,25.5191],[93.2826,25.5162],[93.2988,25.5191],[93.3188,25.5136],[93.3289,25.5276],[93.3289,25.5276],[93.3438,25.537],[93.366,25.5452],[93.3998,25.5889],[93.4433,25.6133],[93.4989,25.6336],[93.5183,25.6654],[93.5427,25.6941],[93.559,25.712],[93.5805,25.734],[93.6004,25.7475],[93.6215,25.7595],[93.6222,25.7734],[93.6467,25.788],[93.655,25.7962],[93.6755,25.7984],[93.6854,25.8082],[93.6969,25.8181],[93.7024,25.8272],[93.6857,25.8677],[93.6948,25.8843],[93.7141,25.8894],[93.7271,25.8961],[93.7442,25.9024],[93.7579,25.9243],[93.7737,25.9354],[93.7836,25.9496],[93.8026,25.9525],[93.7903,25.9671],[93.7912,25.9825],[93.7932,25.9961],[93.7876,26.003],[93.7841,26.0199],[93.7998,26.0403],[93.8124,26.0559],[93.822,26.0804],[93.8226,26.0955],[93.8294,26.1043],[93.8303,26.121],[93.8269,26.1442],[93.8373,26.1638],[93.8457,26.1783],[93.857,26.1925],[93.8541,26.203],[93.8677,26.2213],[93.8707,26.2302],[93.8745,26.2479],[93.8793,26.2609],[93.8762,26.2714],[93.8908,26.2806],[93.8846,26.3017],[93.8862,26.3132],[93.8897,26.3267],[93.8809,26.3453],[93.8765,26.352],[93.8571,26.3639],[93.8278,26.3761],[93.8097,26.3572],[93.7932,26.3386],[93.7804,26.3484],[93.7999,26.369],[93.7833,26.382],[93.7846,26.3971],[93.7864,26.4163],[93.7734,26.4339],[93.7679,26.4539],[93.7553,26.4716],[93.7453,26.4841],[93.7388,26.4971],[93.7386,26.5147],[93.7493,26.5353],[93.727,26.5484],[93.7026,26.5587],[93.6721,26.5557],[93.647,26.5531],[93.6269,26.5462],[93.6188,26.5226],[93.6094,26.5302],[93.586,26.5265],[93.5902,26.5519],[93.5628,26.561],[93.5344,26.5507],[93.5056,26.5526],[93.4999,26.5627]]]}},{"type":"Feature","properties":{"name":"Sonitpur"},"geometry":{"type":"Polygon","coordinates":[[[92.6587,26.9774],[92.6489,26.9645],[92.6434,26.9499],[92.6444,26.9281],[92.5968,26.9085],[92.5524,26.9003],[92.504,26.9079],[92.4491,26.9025],[92.4319,26.89],[92.411,26.8861],[92.399,26.8683],[92.3637,26.8749],[92.3635,26.875],[92.3635,26.8747],[92.3478,26.8451],[92.3435,26.819],[92.3396,26.7969],[92.3349,26.7727],[92.3304,26.7634],[92.3291,26.7526],[92.3345,26.7368],[92.3389,26.7206],[92.3313,26.7146],[92.3285,26.6989],[92.3332,26.6828],[92.3352,26.6545],[92.3337,26.633],[92.3332,26.6177],[92.332,26.6061],[92.3355,26.5942],[92.3365,26.5895],[92.3311,26.5827],[92.3282,26.5622],[92.3298,26.5552],[92.3306,26.5482],[92.3385,26.5351],[92.3613,26.533],[92.3606,26.5216],[92.369,26.5066],[92.3712,26.4852],[92.3758,26.4744],[92.3994,26.4724],[92.395,26.4691],[92.4082,26.4691],[92.4162,26.47],[92.4329,26.4735],[92.4518,26.4694],[92.4644,26.4522],[92.4855,26.4552],[92.5333,26.4636],[92.5597,26.4586],[92.5766,26.4551],[92.6035,26.4634],[92.6466,26.4722],[92.6697,26.4723],[92.6874,26.465],[92.7207,26.4888],[92.7258,26.4771],[92.7474,26.4671],[92.7563,26.4761],[92.7635,26.4913],[92.7702,26.5099],[92.7963,26.5113],[92.8429,26.5371],[92.8689,26.5357],[92.8875,26.5462],[92.8875,26.5462],[92.8771,26.5638],[92.8711,26.5837],[92.8651,26.6052],[92.8658,26.6172],[92.8649,26.6335],[92.86,26.655],[92.8562,26.6727],[92.8603,26.6944],[92.869,26.7036],[92.8759,26.7139],[92.8779,26.7306],[92.8774,26.749],[92.8646,26.7874],[92.8683,26.7996],[92.8755,26.8138],[92.8881,26.829],[92.9044,26.8361],[92.9178,26.8437],[92.9275,26.8546],[92.9467,26.8633],[92.9607,26.8689],[92.9791,26.8774],[92.9251,26.9018],[92.9142,26.9163],[92.9045,26.9326],[92.8743,26.9462],[92.8255,26.9576],[92.7701,26.9719],[92.7137,26.9659],[92.6615,26.9768],[92.6587,26.9774],[92.6587,26.9774]]]}},{"type":"Feature","properties":{"name":"Lakhimpur"},"geometry":{"type":"MultiPolygon","coordinates":[[[[94.2572,27.4504],[94.2571,27.4504],[94.2571,27.4504],[94.2572,27.4504]]],[[[94.2571,27.4504],[94.214,27.4314],[94.1903,27.4243],[94.167,27.4122],[94.1575,27.3951],[94.1243,27.3671],[94.1,27.3455],[94.0742,27.3197],[94.0588,27.2947],[94.0229,27.2787],[93.9978,27.265],[93.9805,27.2485],[93.9483,27.2205],[93.8955,27.1714],[93.8672,27.1364],[93.8436,27.1143],[93.8208,27.1014],[93.8042,27.0804],[93.8021,27.0708],[93.8129,27.06],[93.8245,27.0414],[93.8321,27.0209],[93.8239,27.0094],[93.8093,27.0078],[93.7947,27.0093],[93.7837,26.9943],[93.777,26.9968],[93.7687,26.9935],[93.7559,26.9774],[93.7094,26.9533],[93.6961,26.9353],[93.6962,26.9352],[93.7232,26.9186],[93.7422,26.8986],[93.7462,26.8723],[93.7414,26.8522],[93.7601,26.8373],[93.7793,26.8253],[93.7858,26.8065],[93.7863,26.8056],[93.7867,26.8047],[93.8074,26.8061],[93.8355,26.7963],[93.8676,26.7918],[93.894,26.81],[93.9084,26.8326],[93.9156,26.8676],[93.9585,26.8719],[93.987,26.876],[94.0091,26.8744],[94.0251,26.8879],[94.0371,26.9112],[94.0528,26.9202],[94.0691,26.9168],[94.0846,26.9025],[94.1066,26.9155],[94.1346,26.9127],[94.1196,26.9357],[94.1351,26.9467],[94.1589,26.9352],[94.1665,26.959],[94.1644,26.9862],[94.1792,26.9757],[94.1969,26.9719],[94.2125,26.977],[94.2159,26.9989],[94.2322,27.0218],[94.2532,27.0095],[94.2618,27.0288],[94.2838,27.0371],[94.299,27.0249],[94.3126,27.0338],[94.3335,27.0215],[94.352,27.033],[94.3696,27.0372],[94.3754,27.0399],[94.3992,27.0372],[94.4082,27.0308],[94.4198,27.0448],[94.4323,27.0605],[94.4645,27.0587],[94.4833,27.0768],[94.5023,27.0615],[94.5133,27.0824],[94.5255,27.0957],[94.5454,27.1113],[94.5665,27.1184],[94.5693,27.1228],[94.5772,27.1347],[94.5758,27.1541],[94.5855,27.1864],[94.5842,27.2044],[94.5953,27.2191],[94.5953,27.2191],[94.5753,27.2383],[94.5569,27.2563],[94.5336,27.2393],[94.5242,27.2438],[94.5151,27.2695],[94.496,27.2816],[94.4719,27.2794],[94.4448,27.2738],[94.429,27.2658],[94.4003,27.2659],[94.3536,27.2746],[94.3374,27.2785],[94.3204,27.2841],[94.2981,27.2815],[94.2938,27.2865],[94.2776,27.2923],[94.2626,27.3021],[94.2475,27.3165],[94.2444,27.3235],[94.2621,27.3315],[94.2783,27.3184],[94.2963,27.3214],[94.3034,27.3434],[94.3042,27.365],[94.283,27.3856],[94.2759,27.4049],[94.2773,27.432],[94.2606,27.4486],[94.2571,27.4504]]]]}},{"type":"Feature","properties":{"name":"Barpeta"},"geometry":{"type":"Polygon","coordinates":[[[91.0108,26.5705],[91.0048,26.5685],[91.0037,26.5587],[91.0015,26.5491],[90.9913,26.5435],[90.9763,26.5434],[90.9689,26.5401],[90.9768,26.5279],[90.9784,26.5123],[90.9708,26.5067],[90.949,26.4999],[90.9416,26.4921],[90.9362,26.4983],[90.9289,26.504],[90.9203,26.5079],[90.924,26.5142],[90.9199,26.5192],[90.9192,26.5282],[90.9181,26.5358],[90.9129,26.5362],[90.9115,26.5254],[90.8967,26.5273],[90.8871,26.5266],[90.8782,26.5254],[90.8692,26.5205],[90.8542,26.5218],[90.8464,26.5236],[90.8464,26.5236],[90.8281,26.5266],[90.817,26.5181],[90.8282,26.5074],[90.8293,26.4931],[90.8425,26.4881],[90.8522,26.4826],[90.8504,26.4694],[90.8506,26.4531],[90.837,26.4576],[90.8221,26.4471],[90.8059,26.4526],[90.8029,26.4471],[90.8037,26.4327],[90.8167,26.4304],[90.8187,26.4153],[90.8249,26.404],[90.8102,26.394],[90.7957,26.3995],[90.7862,26.3944],[90.7936,26.3838],[90.8171,26.3874],[90.8287,26.3875],[90.8416,26.3991],[90.8522,26.3951],[90.8577,26.385],[90.8489,26.3679],[90.844,26.3577],[90.8467,26.3468],[90.8602,26.3302],[90.8572,26.3185],[90.8427,26.3157],[90.8311,26.3183],[90.8191,26.3227],[90.8075,26.312],[90.8042,26.3006],[90.7894,26.2852],[90.799,26.2796],[90.8035,26.2703],[90.795,26.264],[90.783,26.2615],[90.7664,26.2656],[90.756,26.2697],[90.7459,26.2608],[90.7271,26.2503],[90.7183,26.2366],[90.7217,26.2273],[90.7324,26.225],[90.7281,26.2168],[90.716,26.223],[90.7015,26.2155],[90.6712,26.214],[90.6599,26.2082],[90.6523,26.197],[90.6587,26.188],[90.6635,26.1778],[90.6672,26.1692],[90.6783,26.1416],[90.6919,26.1153],[90.7067,26.1096],[90.7122,26.1015],[90.7178,26.0954],[90.728,26.0978],[90.7444,26.0998],[90.7784,26.0967],[90.8128,26.0843],[90.8294,26.0789],[90.8394,26.0751],[90.8499,26.0792],[90.8618,26.0727],[90.8693,26.0612],[90.8872,26.0586],[90.9089,26.0542],[90.9232,26.056],[90.933,26.0615],[90.936,26.0577],[90.936,26.0577],[90.9587,26.0633],[90.9731,26.0754],[90.9893,26.0876],[91.0027,26.0923],[91.0215,26.0846],[91.0316,26.0845],[91.0486,26.0915],[91.0537,26.0999],[91.074,26.1188],[91.0914,26.1259],[91.1088,26.1196],[91.1196,26.1172],[91.1382,26.1213],[91.1508,26.1243],[91.1736,26.1339],[91.2119,26.1401],[91.2336,26.1441],[91.2336,26.1441],[91.2336,26.1441],[91.2468,26.1589],[91.2356,26.1722],[91.2152,26.1817],[91.2309,26.2056],[91.2282,26.2221],[91.2164,26.2262],[91.2283,26.2397],[91.2555,26.2448],[91.252,26.2548],[91.2583,26.2659],[91.2635,26.2752],[91.2665,26.2937],[91.2756,26.304],[91.2707,26.3188],[91.2752,26.3286],[91.2507,26.3243],[91.2413,26.3357],[91.2347,26.3477],[91.2385,26.3593],[91.2301,26.3577],[91.2096,26.3601],[91.202,26.3667],[91.1954,26.3809],[91.1845,26.3953],[91.1681,26.3952],[91.147,26.3962],[91.1255,26.3992],[91.1207,26.3828],[91.1155,26.3649],[91.1002,26.3563],[91.0733,26.3565],[91.0533,26.3613],[91.041,26.3786],[91.0314,26.3605],[91.0227,26.3605],[91.0127,26.3714],[91.0008,26.3831],[90.9986,26.3914],[90.9993,26.403],[90.989,26.4103],[90.9839,26.4196],[90.9745,26.4243],[90.9797,26.4348],[90.9721,26.4453],[91.0029,26.4519],[91.0046,26.487],[91.0129,26.5013],[91.0111,26.5226],[91.021,26.5383],[91.0241,26.5533],[91.0148,26.5681],[91.0108,26.5705]]]}},{"type":"Feature","properties":{"name":"Tinsukia"},"geometry":{"type":"Polygon","coordinates":[[[95.8229,27.8928],[95.8229,27.8928],[95.605,27.8738],[95.5849,27.8579],[95.5672,27.8584],[95.5615,27.8392],[95.5437,27.832],[95.5399,27.8202],[95.5234,27.8157],[95.5122,27.7997],[95.5123,27.7996],[95.5158,27.7819],[95.4939,27.7788],[95.4824,27.7672],[95.4742,27.7535],[95.473,27.7429],[95.4632,27.7288],[95.4573,27.7074],[95.4501,27.6946],[95.4157,27.6642],[95.3971,27.652],[95.3651,27.6402],[95.3256,27.6252],[95.3091,27.6227],[95.2789,27.6176],[95.2726,27.61],[95.2889,27.592],[95.3055,27.5449],[95.3179,27.5176],[95.3002,27.515],[95.2902,27.5072],[95.2791,27.4994],[95.2735,27.4933],[95.2775,27.4788],[95.2652,27.475],[95.2667,27.4589],[95.261,27.4454],[95.24,27.4366],[95.2264,27.4219],[95.2259,27.4045],[95.2192,27.389],[95.2358,27.3686],[95.2477,27.3608],[95.2546,27.3457],[95.2704,27.3438],[95.2879,27.3453],[95.3026,27.3352],[95.3195,27.325],[95.3468,27.3272],[95.3723,27.3165],[95.3809,27.3273],[95.4116,27.3206],[95.4266,27.3086],[95.4414,27.3023],[95.4629,27.3024],[95.4712,27.2895],[95.4637,27.2775],[95.4487,27.2675],[95.4622,27.2526],[95.458,27.2395],[95.4515,27.2276],[95.4614,27.2086],[95.4458,27.1978],[95.4367,27.1909],[95.4457,27.1684],[95.4536,27.1783],[95.4613,27.1933],[95.4725,27.1875],[95.4835,27.1769],[95.5066,27.1845],[95.5173,27.1901],[95.531,27.2019],[95.5497,27.1932],[95.5626,27.1859],[95.5741,27.1769],[95.5858,27.1646],[95.616,27.1711],[95.6333,27.171],[95.6716,27.1862],[95.6863,27.1915],[95.7038,27.1907],[95.7216,27.1928],[95.7354,27.2028],[95.7626,27.2092],[95.7823,27.214],[95.7979,27.2222],[95.8064,27.2141],[95.8409,27.2233],[95.8572,27.2244],[95.8615,27.21],[95.8734,27.2009],[95.889,27.1968],[95.8971,27.2086],[95.8998,27.222],[95.9138,27.2312],[95.9435,27.2442],[95.9601,27.2511],[95.9648,27.2611],[95.979,27.266],[95.9674,27.2695],[95.9849,27.2802],[95.9974,27.289],[96.0167,27.2948],[96.005,27.302],[95.9981,27.3143],[95.9929,27.3277],[95.9826,27.3384],[95.9739,27.3419],[95.9686,27.3475],[95.9655,27.3587],[95.9611,27.3466],[95.9569,27.3589],[95.9495,27.3513],[95.9449,27.3508],[95.9373,27.3501],[95.9285,27.3514],[95.9184,27.3532],[95.9069,27.3639],[95.8979,27.3515],[95.897,27.3359],[95.8815,27.3253],[95.8742,27.3419],[95.8584,27.3395],[95.8497,27.3457],[95.849,27.3738],[95.8567,27.3877],[95.8724,27.3996],[95.8754,27.4193],[95.8854,27.4336],[95.877,27.4493],[95.8776,27.4734],[95.8596,27.4783],[95.8373,27.4927],[95.8227,27.5071],[95.8173,27.5227],[95.8044,27.5302],[95.7913,27.5445],[95.7858,27.5571],[95.7975,27.5725],[95.7752,27.5842],[95.784,27.6062],[95.7827,27.616],[95.7694,27.6287],[95.759,27.6445],[95.7665,27.6559],[95.7823,27.667],[95.7841,27.6852],[95.8035,27.7087],[95.8241,27.7324],[95.8419,27.7483],[95.8698,27.7586],[95.8889,27.7772],[95.9029,27.7881],[95.9087,27.7961],[95.9197,27.8077],[95.9207,27.8184],[95.9372,27.8282],[95.9508,27.8446],[95.9483,27.8579],[95.9732,27.8843],[95.9636,27.8845],[95.8229,27.8928],[95.8229,27.8928]]]}},{"type":"Feature","properties":{"name":"Cachar"},"geometry":{"type":"Polygon","coordinates":[[[92.732,25.1332],[92.7359,25.1148],[92.719,25.1064],[92.6983,25.1003],[92.6773,25.1005],[92.656,25.1039],[92.6359,25.1012],[92.6166,25.0941],[92.5949,25.0971],[92.5617,25.0937],[92.5419,25.0885],[92.542,25.0884],[92.5323,25.0921],[92.5053,25.0949],[92.4842,25.0965],[92.4788,25.0811],[92.4739,25.0622],[92.4591,25.0449],[92.4632,25.0346],[92.4502,25.0308],[92.4308,25.0235],[92.4323,25.019],[92.4302,25.0097],[92.4289,25.002],[92.4235,24.9963],[92.4141,24.9825],[92.4348,24.9596],[92.468,24.9524],[92.447,24.9338],[92.488,24.9407],[92.4965,24.8992],[92.4869,24.8717],[92.4869,24.8717],[92.4869,24.8717],[92.5195,24.8643],[92.5416,24.8663],[92.5698,24.8705],[92.5916,24.8727],[92.6056,24.8626],[92.6336,24.8491],[92.637,24.823],[92.6386,24.8175],[92.6521,24.8138],[92.6785,24.8122],[92.683,24.8021],[92.6714,24.7905],[92.6664,24.7804],[92.6656,24.7664],[92.6616,24.7551],[92.6559,24.7257],[92.6581,24.7135],[92.6553,24.6947],[92.6565,24.6787],[92.6639,24.6718],[92.6678,24.6614],[92.667,24.6368],[92.6745,24.6299],[92.6869,24.6281],[92.6951,24.6199],[92.6826,24.6151],[92.6697,24.6133],[92.6723,24.6032],[92.6703,24.593],[92.6792,24.5859],[92.6989,24.5756],[92.7084,24.5709],[92.7185,24.5702],[92.733,24.5855],[92.7397,24.5891],[92.7516,24.5869],[92.7603,24.5799],[92.7676,24.5729],[92.7795,24.5728],[92.7762,24.562],[92.7744,24.5518],[92.7667,24.5415],[92.7599,24.5292],[92.7639,24.5246],[92.7639,24.5246],[92.7661,24.5195],[92.7808,24.4806],[92.7846,24.4694],[92.7933,24.4479],[92.8011,24.4339],[92.7988,24.4278],[92.8063,24.4262],[92.8102,24.42],[92.8184,24.4161],[92.8302,24.4065],[92.8268,24.3894],[92.833,24.3847],[92.8429,24.3873],[92.8502,24.3994],[92.8583,24.4053],[92.8745,24.4047],[92.8837,24.4094],[92.8915,24.4055],[92.8996,24.4004],[92.9045,24.4063],[92.9096,24.4176],[92.9179,24.4145],[92.9245,24.4083],[92.9333,24.4029],[92.9397,24.4081],[92.952,24.4112],[92.9589,24.403],[92.9702,24.4093],[92.9786,24.4162],[92.988,24.4135],[92.9962,24.4086],[93.0099,24.4134],[93.0232,24.4138],[93.0348,24.4487],[93.0375,24.4909],[93.0356,24.5138],[93.0557,24.558],[93.0659,24.5673],[93.0898,24.5829],[93.0811,24.5929],[93.0741,24.6225],[93.0816,24.6475],[93.1026,24.6772],[93.0833,24.6946],[93.0765,24.7136],[93.0872,24.7082],[93.0985,24.7321],[93.1004,24.741],[93.1001,24.7555],[93.1021,24.7776],[93.1107,24.7997],[93.1213,24.8133],[93.1356,24.8075],[93.1495,24.793],[93.1659,24.7968],[93.1776,24.7934],[93.1963,24.8085],[93.1947,24.8282],[93.1963,24.833],[93.1936,24.8409],[93.1987,24.8464],[93.2075,24.853],[93.2268,24.8718],[93.2333,24.8823],[93.2337,24.8956],[93.238,24.9086],[93.2478,24.9231],[93.2452,24.933],[93.2459,24.9362],[93.2534,24.9465],[93.2611,24.9558],[93.2511,24.9671],[93.2502,24.9664],[93.249,24.9656],[93.2345,24.9692],[93.225,24.9794],[93.2051,24.9755],[93.1912,24.986],[93.1754,24.9906],[93.0812,24.9918],[93.0616,24.998],[93.0596,25.0166],[93.0404,25.0293],[93.0241,25.0462],[93.0224,25.0661],[93.0458,25.0846],[93.0321,25.0952],[93.0099,25.0879],[92.9844,25.0825],[92.9611,25.0803],[92.9506,25.0629],[92.9283,25.0706],[92.8845,25.0607],[92.8618,25.056],[92.8388,25.0462],[92.8278,25.0637],[92.7928,25.0773],[92.7694,25.092],[92.7639,25.1126],[92.7505,25.1268],[92.732,25.1332],[92.732,25.1332]]]}},{"type":"Feature","properties":{"name":"South Salmara- Mankachar"},"geometry":{"type":"Polygon","coordinates":[[[90.1551,26.042],[90.1306,26.0398],[90.1014,26.0351],[90.0859,26.0243],[90.0792,26.0118],[90.0554,25.9951],[90.0462,25.9817],[90.0333,25.9765],[90.0241,25.9645],[89.9955,25.9475],[89.9615,25.9159],[89.9316,25.8979],[89.9141,25.8876],[89.8993,25.8752],[89.8774,25.8635],[89.8619,25.8757],[89.8619,25.8757],[89.8544,25.8655],[89.835,25.8364],[89.8322,25.8083],[89.8169,25.7851],[89.832,25.7649],[89.8379,25.7234],[89.837,25.6888],[89.851,25.676],[89.862,25.6456],[89.879,25.6156],[89.8811,25.5813],[89.8742,25.5505],[89.864,25.5208],[89.8643,25.5208],[89.879,25.5264],[89.8935,25.5355],[89.9307,25.5402],[89.9475,25.5449],[89.9711,25.5501],[89.9789,25.5644],[89.9965,25.5629],[90.0093,25.5694],[90.0192,25.5833],[90.0072,25.5979],[89.9908,25.6001],[89.9814,25.6126],[89.9491,25.6328],[89.943,25.6502],[89.9282,25.666],[89.9164,25.6771],[89.9002,25.695],[89.8967,25.7165],[89.9199,25.7119],[89.9354,25.7192],[89.9445,25.7327],[89.956,25.7521],[89.9528,25.7748],[89.9468,25.7877],[89.9559,25.7961],[89.9756,25.8007],[89.9926,25.8063],[89.9986,25.8145],[90.0126,25.8194],[90.0212,25.8392],[90.0059,25.8478],[90.0323,25.8625],[90.0491,25.8639],[90.0599,25.8782],[90.0739,25.8872],[90.0864,25.8935],[90.0905,25.9042],[90.1062,25.9092],[90.1197,25.9279],[90.1226,25.9356],[90.1359,25.9391],[90.1516,25.9481],[90.1771,25.958],[90.1792,25.9753],[90.1756,25.9782],[90.1853,25.9873],[90.1801,26.0027],[90.1707,26.0154],[90.1734,26.0298],[90.1551,26.042]]]}},{"type":"Feature","properties":{"name":"Kokrajhar"},"geometry":{"type":"Polygon","coordinates":[[[90.3377,26.8129],[90.3011,26.7928],[90.2486,26.8029],[90.2303,26.8023],[90.2014,26.7793],[90.1885,26.7514],[90.1956,26.7198],[90.1355,26.699],[90.0495,26.6778],[90.0085,26.6795],[89.9664,26.6711],[89.8988,26.6716],[89.8617,26.6895],[89.8589,26.6764],[89.862,26.6511],[89.8701,26.6119],[89.8675,26.5799],[89.8612,26.5691],[89.8592,26.5517],[89.8574,26.5396],[89.8588,26.5289],[89.8466,26.5163],[89.8526,26.5069],[89.8509,26.4941],[89.8518,26.4831],[89.8595,26.4784],[89.8592,26.4577],[89.856,26.4181],[89.8578,26.3926],[89.8474,26.3596],[89.8195,26.3404],[89.8131,26.3218],[89.8113,26.3112],[89.8113,26.3112],[89.8114,26.3112],[89.8428,26.2974],[89.8655,26.2848],[89.891,26.2711],[89.8883,26.2447],[89.8863,26.2174],[89.8806,26.1774],[89.8755,26.152],[89.8727,26.1324],[89.8745,26.1087],[89.8991,26.0823],[89.9234,26.0783],[89.9602,26.0821],[89.9825,26.0921],[90.0105,26.0988],[90.0459,26.092],[90.0594,26.1068],[90.0677,26.1305],[90.0992,26.1523],[90.1187,26.172],[90.1213,26.1993],[90.1244,26.219],[90.1459,26.2277],[90.1484,26.2465],[90.1291,26.2552],[90.1024,26.2618],[90.0981,26.2822],[90.1455,26.3082],[90.1688,26.3015],[90.1896,26.3049],[90.2069,26.3212],[90.2156,26.3382],[90.225,26.3297],[90.2275,26.3113],[90.2248,26.3066],[90.2172,26.2892],[90.2351,26.2832],[90.2363,26.2659],[90.2458,26.2493],[90.2663,26.2377],[90.2733,26.2336],[90.2687,26.2183],[90.2658,26.1981],[90.2949,26.1919],[90.3171,26.1926],[90.3353,26.205],[90.3792,26.2261],[90.4017,26.2478],[90.4065,26.268],[90.4209,26.2898],[90.4547,26.2962],[90.4548,26.2962],[90.4566,26.3],[90.4568,26.3115],[90.4495,26.312],[90.4447,26.3267],[90.4418,26.3437],[90.4388,26.3585],[90.4263,26.3843],[90.403,26.399],[90.3976,26.4448],[90.3889,26.478],[90.3702,26.4973],[90.3626,26.5307],[90.3602,26.5773],[90.352,26.5969],[90.3374,26.6351],[90.3448,26.6769],[90.3445,26.7225],[90.3427,26.768],[90.3377,26.8129],[90.3377,26.8129]]]}},{"type":"Feature","properties":{"name":"West Karbi  Anglong"},"geometry":{"type":"Polygon","coordinates":[[[92.5229,26.1133],[92.5142,26.1091],[92.5039,26.1104],[92.4797,26.1081],[92.4704,26.1104],[92.4593,26.1021],[92.4495,26.0961],[92.4412,26.0865],[92.4319,26.0801],[92.4223,26.0806],[92.4065,26.0826],[92.4066,26.091],[92.4099,26.0999],[92.4123,26.102],[92.3912,26.1042],[92.3708,26.095],[92.3585,26.0779],[92.3431,26.071],[92.3321,26.0629],[92.3128,26.0509],[92.3092,26.0412],[92.3008,26.0404],[92.2351,25.9788],[92.2174,25.9656],[92.2,25.9517],[92.1724,25.9386],[92.1628,25.92],[92.1605,25.9],[92.1689,25.8783],[92.1895,25.8838],[92.2067,25.8787],[92.2244,25.8701],[92.2057,25.86],[92.1816,25.8414],[92.1795,25.8201],[92.1646,25.8032],[92.1521,25.7834],[92.1503,25.7564],[92.1553,25.7363],[92.1642,25.7151],[92.1544,25.6966],[92.1558,25.6798],[92.1636,25.6587],[92.1688,25.641],[92.1974,25.6602],[92.2203,25.6826],[92.2358,25.6815],[92.2696,25.6841],[92.3013,25.6943],[92.3246,25.6975],[92.3527,25.7077],[92.3729,25.7203],[92.384,25.717],[92.4115,25.7148],[92.4206,25.7024],[92.441,25.6935],[92.4308,25.6775],[92.4395,25.662],[92.4614,25.657],[92.4793,25.6396],[92.5021,25.5977],[92.5276,25.5929],[92.5524,25.5898],[92.555,25.569],[92.563,25.5463],[92.5824,25.5348],[92.603,25.5387],[92.6278,25.5462],[92.6501,25.569],[92.6589,25.5475],[92.6589,25.5475],[92.6723,25.5509],[92.6803,25.5638],[92.7145,25.5709],[92.7492,25.5812],[92.7668,25.5963],[92.7652,25.6092],[92.7876,25.6367],[92.7857,25.6584],[92.8066,25.6743],[92.8208,25.7038],[92.8327,25.7179],[92.8859,25.7305],[92.9273,25.7523],[92.9287,25.7765],[92.965,25.7872],[92.9688,25.7628],[92.9784,25.7523],[92.9931,25.7925],[92.9989,25.7647],[93.022,25.766],[93.053,25.7557],[93.061,25.7524],[93.0704,25.7491],[93.0704,25.7491],[93.0757,25.7553],[93.0594,25.7617],[93.0431,25.7748],[93.0213,25.797],[93.0119,25.8094],[93.0053,25.8214],[92.995,25.8313],[92.9848,25.8469],[92.9647,25.8462],[92.9446,25.8432],[92.9189,25.8399],[92.9028,25.8379],[92.8896,25.836],[92.8841,25.8335],[92.8578,25.8349],[92.8445,25.8855],[92.8125,25.8949],[92.7957,25.9034],[92.7885,25.9325],[92.7724,25.9491],[92.781,25.9724],[92.7514,25.9884],[92.7522,25.9998],[92.7545,26.0161],[92.7531,26.027],[92.7172,26.0236],[92.7121,26.0048],[92.7133,25.9948],[92.7092,25.9868],[92.6976,25.9876],[92.6866,25.9906],[92.6781,25.9931],[92.6664,25.9938],[92.6563,25.9861],[92.6587,25.9734],[92.65,25.9663],[92.6358,25.9609],[92.6254,25.9534],[92.6075,25.9441],[92.5958,25.9404],[92.5855,25.9331],[92.5722,25.9299],[92.5571,25.9333],[92.553,25.9429],[92.5703,25.9687],[92.5701,25.9794],[92.5921,25.9893],[92.5842,25.9957],[92.5836,26.0092],[92.5901,26.0285],[92.5963,26.041],[92.5878,26.0503],[92.5754,26.0611],[92.5764,26.0751],[92.5639,26.0797],[92.5497,26.0758],[92.5404,26.0668],[92.5314,26.065],[92.5196,26.0689],[92.5217,26.0852],[92.5233,26.0967],[92.5257,26.111],[92.5229,26.1133]]]}},{"type":"Feature","properties":{"name":"Kamrup  Metropolitan"},"geometry":{"type":"Polygon","coordinates":[[[91.9508,26.2193],[91.9291,26.2144],[91.9161,26.2103],[91.9045,26.1983],[91.8885,26.1888],[91.8724,26.1825],[91.8528,26.1827],[91.8317,26.1821],[91.8077,26.1778],[91.7875,26.1722],[91.7709,26.1662],[91.7497,26.1691],[91.7495,26.1694],[91.7388,26.1651],[91.7244,26.1516],[91.7126,26.1446],[91.6891,26.1427],[91.6668,26.1422],[91.6435,26.1504],[91.6407,26.1463],[91.6498,26.1352],[91.631,26.1259],[91.6385,26.1081],[91.6353,26.0908],[91.6495,26.0799],[91.6615,26.0686],[91.678,26.0696],[91.6863,26.073],[91.692,26.0616],[91.7045,26.0696],[91.7269,26.0722],[91.7456,26.0684],[91.7665,26.0675],[91.7717,26.0482],[91.7717,26.0481],[91.7729,26.0494],[91.7834,26.0505],[91.7945,26.0578],[91.8033,26.0678],[91.8154,26.0746],[91.8262,26.081],[91.8751,26.0612],[91.87,26.0264],[91.8768,26.0054],[91.8859,25.9952],[91.9059,25.9922],[91.9166,25.9852],[91.9182,25.973],[91.9255,25.9654],[91.9333,25.9801],[91.9505,25.9824],[91.9784,25.9919],[91.9868,26.0035],[92.0005,26.0037],[92.0161,26.0045],[92.0306,26.0047],[92.0439,25.9995],[92.0669,26.0016],[92.0798,26.008],[92.1027,26.0137],[92.1261,26.0105],[92.1376,26.0171],[92.1485,26.0258],[92.1605,26.0366],[92.1774,26.0435],[92.17,26.075],[92.1627,26.1126],[92.1647,26.1253],[92.1478,26.1256],[92.1294,26.1355],[92.0941,26.1364],[92.0818,26.1464],[92.0528,26.1654],[92.0402,26.1597],[92.0164,26.1658],[91.9557,26.2082],[91.9508,26.2193],[91.9508,26.2193]]]}},{"type":"Feature","properties":{"name":"Golaghat"},"geometry":{"type":"Polygon","coordinates":[[[94.0002,26.7865],[93.9793,26.7778],[93.9595,26.765],[93.9495,26.7462],[93.9312,26.7379],[93.9051,26.7542],[93.8877,26.7746],[93.8661,26.7795],[93.8457,26.7648],[93.8236,26.7523],[93.7995,26.7462],[93.7551,26.7445],[93.7432,26.7493],[93.7119,26.7655],[93.7011,26.7556],[93.6862,26.7443],[93.668,26.7483],[93.6479,26.7379],[93.6524,26.712],[93.665,26.6778],[93.6701,26.6636],[93.6549,26.6599],[93.6387,26.657],[93.6048,26.6654],[93.5632,26.6747],[93.5597,26.6863],[93.5383,26.6979],[93.5239,26.7043],[93.5011,26.7084],[93.4693,26.7083],[93.4416,26.6956],[93.419,26.6961],[93.3972,26.7008],[93.3678,26.6913],[93.3421,26.6758],[93.3348,26.659],[93.3201,26.6555],[93.3057,26.6488],[93.3074,26.6423],[93.3154,26.6364],[93.3155,26.6321],[93.3182,26.63],[93.3159,26.6267],[93.3082,26.6202],[93.3095,26.6148],[93.319,26.6088],[93.3181,26.6011],[93.3132,26.5923],[93.3079,26.5889],[93.2892,26.5893],[93.285,26.5873],[93.2927,26.5695],[93.299,26.558],[93.2947,26.5455],[93.2926,26.542],[93.2931,26.5397],[93.3031,26.5344],[93.3012,26.5321],[93.298,26.5295],[93.3148,26.5333],[93.3508,26.5357],[93.3949,26.5329],[93.4072,26.523],[93.4391,26.5301],[93.4573,26.5296],[93.4603,26.5269],[93.4816,26.5366],[93.4761,26.5423],[93.4894,26.5573],[93.5056,26.5526],[93.5344,26.5507],[93.5628,26.561],[93.5902,26.5519],[93.586,26.5265],[93.6094,26.5302],[93.6188,26.5226],[93.6269,26.5462],[93.647,26.5531],[93.6721,26.5557],[93.7026,26.5587],[93.727,26.5484],[93.7493,26.5353],[93.7386,26.5147],[93.7388,26.4971],[93.7453,26.4841],[93.7553,26.4716],[93.7679,26.4539],[93.7734,26.4339],[93.7864,26.4163],[93.7846,26.3971],[93.7833,26.382],[93.7999,26.369],[93.7804,26.3484],[93.7932,26.3386],[93.8097,26.3572],[93.8278,26.3761],[93.8571,26.3639],[93.8765,26.352],[93.8809,26.3453],[93.8897,26.3267],[93.8862,26.3132],[93.8846,26.3017],[93.8908,26.2806],[93.8762,26.2714],[93.8793,26.2609],[93.8745,26.2479],[93.8707,26.2302],[93.8677,26.2213],[93.8541,26.203],[93.857,26.1925],[93.8457,26.1783],[93.8373,26.1638],[93.8269,26.1442],[93.8303,26.121],[93.8294,26.1043],[93.8226,26.0955],[93.822,26.0804],[93.8124,26.0559],[93.7998,26.0403],[93.7841,26.0199],[93.7876,26.003],[93.7933,25.9961],[93.7912,25.9825],[93.7903,25.9671],[93.8026,25.9525],[93.7836,25.9496],[93.7737,25.9354],[93.7737,25.9354],[93.7843,25.9213],[93.7891,25.9075],[93.79,25.8904],[93.7934,25.8678],[93.7854,25.8478],[93.783,25.8324],[93.7781,25.8153],[93.7889,25.7877],[93.8093,25.7915],[93.822,25.8156],[93.8463,25.8321],[93.8711,25.8204],[93.8881,25.8257],[93.9013,25.8417],[93.9187,25.8577],[93.9377,25.8696],[93.9633,25.8774],[93.9797,25.8928],[93.9685,25.9178],[93.9538,25.9406],[93.9576,25.966],[93.9588,25.9837],[93.9704,26.0095],[93.9854,26.0321],[93.9843,26.0522],[93.9933,26.0699],[93.9891,26.081],[93.9899,26.0956],[94.003,26.1057],[94.0012,26.1246],[94.0088,26.1453],[94.0273,26.1595],[94.038,26.1834],[94.0438,26.2039],[94.0611,26.2203],[94.0754,26.2341],[94.0848,26.2488],[94.1009,26.2708],[94.1134,26.2815],[94.117,26.2879],[94.1362,26.2985],[94.1503,26.2968],[94.1731,26.3015],[94.1654,26.3102],[94.1653,26.3102],[94.1426,26.3114],[94.1311,26.3233],[94.1193,26.3528],[94.1166,26.3794],[94.1285,26.4037],[94.1023,26.4281],[94.0974,26.446],[94.1038,26.4622],[94.1075,26.4807],[94.1138,26.4996],[94.1144,26.5117],[94.1008,26.5248],[94.0887,26.5338],[94.0766,26.5354],[94.0714,26.5463],[94.0814,26.561],[94.0819,26.5716],[94.0882,26.581],[94.0954,26.5947],[94.0849,26.6063],[94.0724,26.6151],[94.0639,26.6174],[94.0541,26.6193],[94.0499,26.6271],[94.0489,26.638],[94.0421,26.65],[94.0419,26.6644],[94.044,26.6797],[94.0432,26.6884],[94.0328,26.6882],[94.0221,26.6976],[94.0008,26.6969],[93.9978,26.7149],[93.9776,26.7156],[93.9743,26.7287],[93.9772,26.7379],[93.987,26.7675],[94.0084,26.7844],[94.0002,26.7865],[94.0002,26.7865]]]}},{"type":"Feature","properties":{"name":"Charaideo"},"geometry":{"type":"Polygon","coordinates":[[[94.966,27.168],[94.9439,27.1502],[94.8859,27.0998],[94.8539,27.0611],[94.8391,27.0374],[94.8391,27.0373],[94.8132,27.0078],[94.8178,26.9522],[94.7746,26.8812],[94.8359,26.8176],[94.8477,26.8242],[94.86,26.845],[94.8662,26.8563],[94.8779,26.8683],[94.9055,26.884],[94.9209,26.8923],[94.9287,26.8845],[94.9399,26.8813],[94.958,26.8836],[94.9659,26.8721],[94.9775,26.8656],[94.9886,26.861],[94.9959,26.8663],[95.0183,26.8678],[95.0336,26.8797],[95.0561,26.8856],[95.0736,26.8921],[95.0922,26.8994],[95.1094,26.9128],[95.1134,26.9246],[95.1388,26.9383],[95.1499,26.9452],[95.1919,26.9824],[95.1966,26.9823],[95.207,26.9735],[95.222,26.9812],[95.2275,26.9844],[95.2397,26.9747],[95.2562,26.976],[95.2634,26.9801],[95.275,26.9958],[95.2992,27.0151],[95.3168,27.0268],[95.3451,27.042],[95.3696,27.05],[95.3648,27.0789],[95.3449,27.1087],[95.3234,27.1253],[95.2923,27.131],[95.264,27.1295],[95.2541,27.1208],[95.2383,27.125],[95.2349,27.1091],[95.2173,27.102],[95.1976,27.099],[95.1807,27.0957],[95.177,27.0799],[95.1703,27.0803],[95.1601,27.0656],[95.1469,27.0653],[95.1341,27.0754],[95.1259,27.0743],[95.1139,27.0713],[95.1043,27.0752],[95.074,27.0778],[95.0549,27.0817],[95.0436,27.0947],[95.0233,27.0856],[94.9946,27.0884],[94.9779,27.0932],[94.9818,27.1098],[94.9732,27.1319],[94.966,27.168]]]}}]}